Country Name,Country Code,lat,long,Indicator Name,Indicator Code,1960,1961,1962,1963,1964,1965,1966,1967,1968,1969,1970,1971,1972,1973,1974,1975,1976,1977,1978,1979,1980,1981,1982,1983,1984,1985,1986,1987,1988,1989,1990,1991,1992,1993,1994,1995,1996,1997,1998,1999,2000,2001,2002,2003,2004,2005,2006,2007,2008,2009,2010,2011,2012,2013,2014,2015,2016,2017,2018,2019,2020
Aruba,ABW,12.52111,-69.968338,"Employment to population ratio, 15+, total (%) (modeled ILO estimate)",SL.EMP.TOTL.SP.ZS,,,,,,,,,,,,,,,,,,,,,,,,,,,,,,,,,,,,,,,,,,,,,,,,,,,,,,,,,,,,,
Africa Eastern and Southern,AFE,#N/A,#N/A,"Employment to population ratio, 15+, total (%) (modeled ILO estimate)",SL.EMP.TOTL.SP.ZS,,,,,,,,,,,,,,,,,,,,,,,,,,,,,,,,67.13093631,67.05972928,66.9166007,66.84862847,66.82265302,66.8252633,66.82883327,66.86564763,66.82855572,66.86395056,66.84178221,66.64505566,66.7297865,67.03678319,67.13350372,67.27151931,67.44338366,67.73943265,67.30579165,66.59119225,66.57113467,66.58810935,66.70678669,66.68416641,66.74303107,66.70615729,66.71831836,66.69442764,66.57963312,64.22474821
Afghanistan,AFG,33.93911,67.709953,"Employment to population ratio, 15+, total (%) (modeled ILO estimate)",SL.EMP.TOTL.SP.ZS,,,,,,,,,,,,,,,,,,,,,,,,,,,,,,,,42.45,42.5,42.49,42.47,42.44,42.38,42.31,42.24,42.18,42.19,42.3,42.41,42.56,42.73,42.89,42.85,42.78,42.66,42.35,42.2,42.26,42.35,42.48,42.67,42.86,43.03,43.22,43.38,43.53,41.54
Africa Western and Central,AFW,#N/A,#N/A,"Employment to population ratio, 15+, total (%) (modeled ILO estimate)",SL.EMP.TOTL.SP.ZS,,,,,,,,,,,,,,,,,,,,,,,,,,,,,,,,63.53037464,63.39082895,63.28993168,63.18818536,63.07438724,62.9428983,62.81417785,62.66752031,62.42300207,62.27252677,62.20368972,62.04766801,61.95722079,61.87342799,61.77403835,61.8134477,61.80545116,61.66001737,61.33868702,61.09281051,60.99827553,59.68175933,58.54026841,57.88288174,57.57662786,56.65898299,56.65302393,57.0145158,57.31607976,55.39704212
Angola,AGO,-11.202692,17.873887,"Employment to population ratio, 15+, total (%) (modeled ILO estimate)",SL.EMP.TOTL.SP.ZS,,,,,,,,,,,,,,,,,,,,,,,,,,,,,,,,75.05,75.05,75.15,75.09,74.94,74.86,74.8,74.72,74.63,74.54,74.51,74.38,74.32,74.24,74.17,74.24,74.3,74.34,74.32,70,71.71,71.76,71.8,71.87,71.92,72,72.06,72.1,72.07,69.64
Albania,ALB,41.153332,20.168331,"Employment to population ratio, 15+, total (%) (modeled ILO estimate)",SL.EMP.TOTL.SP.ZS,,,,,,,,,,,,,,,,,,,,,,,,,,,,,,,,57.81,58.17,56.84,55.68,54.12,53.33,54.49,53.76,52.66,52.09,51.18,50.5,49.64,48.82,48.04,47.43,46.88,47.86,47.07,46.63,52.02,49.43,44.69,43.68,46.05,47.89,49.32,52.03,53.41,52.73
Andorra,AND,42.546245,1.601554,"Employment to population ratio, 15+, total (%) (modeled ILO estimate)",SL.EMP.TOTL.SP.ZS,,,,,,,,,,,,,,,,,,,,,,,,,,,,,,,,,,,,,,,,,,,,,,,,,,,,,,,,,,,,,
Arab World,ARB,#N/A,#N/A,"Employment to population ratio, 15+, total (%) (modeled ILO estimate)",SL.EMP.TOTL.SP.ZS,,,,,,,,,,,,,,,,,,,,,,,,,,,,,,,,42.62534504,42.28746111,42.01920922,42.20139203,41.98046115,42.14269879,42.13058948,41.8325784,42.07531013,41.81979067,41.61956698,41.39114903,41.53328565,42.0895038,42.25451737,42.70927695,43.227223,43.43538905,43.80312872,44.08522661,43.63064859,43.67620637,43.8993213,43.66966484,43.43382193,43.49857141,42.97710627,42.85877421,42.90760296,40.88769204
United Arab Emirates,ARE,23.424076,53.847818,"Employment to population ratio, 15+, total (%) (modeled ILO estimate)",SL.EMP.TOTL.SP.ZS,,,,,,,,,,,,,,,,,,,,,,,,,,,,,,,,71.77,72.22,72.91,73.37,73.78,73.27,73.07,73.25,73.71,74.25,73.64,73.56,73.99,74.89,76.11,76.55,77.65,79.08,80.63,81.8,81.7,81.52,81.35,81.34,81.57,81.16,80.28,80.28,80.15,76.9
Argentina,ARG,-38.416097,-63.616672,"Employment to population ratio, 15+, total (%) (modeled ILO estimate)",SL.EMP.TOTL.SP.ZS,,,,,,,,,,,,,,,,,,,,,,,,,,,,,,,,57.25,56.9,54.86,53.99,49.45,50.7,52.49,54.07,53.12,52.58,51.02,49.16,52.23,53.87,54.82,55.96,56.26,55.95,55.79,55.74,56.28,56.13,55.95,55.36,55.45,55.51,55.53,55.73,55.55,49.44
Armenia,ARM,40.069099,45.038189,"Employment to population ratio, 15+, total (%) (modeled ILO estimate)",SL.EMP.TOTL.SP.ZS,,,,,,,,,,,,,,,,,,,,,,,,,,,,,,,,55.95,55.52,53.14,51.96,51.43,49.58,48.38,48.78,47.45,47.14,46.96,46.72,46.54,46.5,46.64,46.93,47.35,45.48,43.8,45.58,47.02,47.93,48.79,47.47,46.48,45.91,45.62,43.08,42.97,39.98
American Samoa,ASM,-14.270972,-170.132217,"Employment to population ratio, 15+, total (%) (modeled ILO estimate)",SL.EMP.TOTL.SP.ZS,,,,,,,,,,,,,,,,,,,,,,,,,,,,,,,,,,,,,,,,,,,,,,,,,,,,,,,,,,,,,
Antigua and Barbuda,ATG,17.060816,-61.796428,"Employment to population ratio, 15+, total (%) (modeled ILO estimate)",SL.EMP.TOTL.SP.ZS,,,,,,,,,,,,,,,,,,,,,,,,,,,,,,,,,,,,,,,,,,,,,,,,,,,,,,,,,,,,,
Australia,AUS,-25.274398,133.775136,"Employment to population ratio, 15+, total (%) (modeled ILO estimate)",SL.EMP.TOTL.SP.ZS,,,,,,,,,,,,,,,,,,,,,,,,,,,,,,,,57.22,56.22,55.78,56.96,58.29,58.26,58.02,58.37,58.67,59.39,59.27,59.57,60.02,60.22,61.31,61.81,62.51,62.88,61.94,62.18,62.29,61.92,61.41,60.92,61.21,61.28,61.59,62.17,62.53,60.6
Austria,AUT,47.516231,14.550072,"Employment to population ratio, 15+, total (%) (modeled ILO estimate)",SL.EMP.TOTL.SP.ZS,,,,,,,,,,,,,,,,,,,,,,,,,,,,,,,,54.25,54.84,54.71,56.47,56.49,55.44,55.2,55.25,55.87,55.77,55.63,55.98,55.95,53.5,54.84,55.43,56.5,57.19,56.8,57.07,57.28,57.36,57.21,56.78,56.66,56.87,57.19,57.79,58.05,56.45
Azerbaijan,AZE,40.143105,47.576927,"Employment to population ratio, 15+, total (%) (modeled ILO estimate)",SL.EMP.TOTL.SP.ZS,,,,,,,,,,,,,,,,,,,,,,,,,,,,,,,,72.14,73.59,73.95,74.49,74.65,73.74,72.42,70.89,69.57,68.05,66.96,65.89,64.88,64.03,63.44,62.54,61.99,61.33,61.05,60.93,60.67,60.94,61.34,61.86,62.27,62.95,63.26,63.56,63.28,59.17
Burundi,BDI,-3.373056,29.918886,"Employment to population ratio, 15+, total (%) (modeled ILO estimate)",SL.EMP.TOTL.SP.ZS,,,,,,,,,,,,,,,,,,,,,,,,,,,,,,,,88.52,87.96,87.29,86.6,85.86,85.13,84.33,83.46,82.73,82,81.33,80.65,80.02,79.47,78.98,78.59,78.25,77.94,77.59,77.39,77.26,77.16,77.08,77,77.37,77.67,77.89,78.03,78.09,78.24
Belgium,BEL,50.503887,4.469936,"Employment to population ratio, 15+, total (%) (modeled ILO estimate)",SL.EMP.TOTL.SP.ZS,,,,,,,,,,,,,,,,,,,,,,,,,,,,,,,,45.69,46.08,45.5,45.29,45.69,45.55,45.9,45.96,47.36,48.76,47.59,47.42,47.13,47.95,48.68,48.63,49.58,49.86,49.16,49.49,49.28,49.13,48.99,48.99,48.91,49.06,49.6,50.51,51.02,50.13
Benin,BEN,9.30769,2.315834,"Employment to population ratio, 15+, total (%) (modeled ILO estimate)",SL.EMP.TOTL.SP.ZS,,,,,,,,,,,,,,,,,,,,,,,,,,,,,,,,71.39,71.39,71.51,71.63,71.73,71.78,71.79,71.77,71.7,71.61,71.49,71.32,71.35,71.34,71.28,71.18,71.03,70.84,70.56,70.31,68.99,68.97,68.93,68.94,68.98,69.03,69.08,69.11,69.12,68.2
Burkina Faso,BFA,12.238333,-1.561593,"Employment to population ratio, 15+, total (%) (modeled ILO estimate)",SL.EMP.TOTL.SP.ZS,,,,,,,,,,,,,,,,,,,,,,,,,,,,,,,,81.08,80.55,79.97,79.4,78.85,78.28,77.7,77.1,76.39,75.71,75,74.26,73.52,72.37,71.18,70.72,70.29,69.35,68.17,67.07,65.95,64.77,63.54,62.33,62.61,62.88,63.16,63.4,63.39,62.14
Bangladesh,BGD,23.684994,90.356331,"Employment to population ratio, 15+, total (%) (modeled ILO estimate)",SL.EMP.TOTL.SP.ZS,,,,,,,,,,,,,,,,,,,,,,,,,,,,,,,,56.54,56.49,56.45,56.44,56.45,56.36,56.21,56.06,55.9,55.76,55.53,55.27,55.04,55.02,55.01,55.28,54.99,54.66,54.16,54.99,54.74,54.48,54.22,54.2,54.16,54.13,56.29,56.48,56.62,52.77
Bulgaria,BGR,42.733883,25.48583,"Employment to population ratio, 15+, total (%) (modeled ILO estimate)",SL.EMP.TOTL.SP.ZS,,,,,,,,,,,,,,,,,,,,,,,,,,,,,,,,49.94,49.97,49.07,48.21,47.38,46.56,45.75,45.69,43.81,41.79,41.36,41.9,43.37,44.92,45.3,47.64,50.09,52.03,50.62,47.91,46.62,46.56,46.89,47.96,49.22,49.4,52.04,52.57,54.35,51.68
Bahrain,BHR,25.930414,50.637772,"Employment to population ratio, 15+, total (%) (modeled ILO estimate)",SL.EMP.TOTL.SP.ZS,,,,,,,,,,,,,,,,,,,,,,,,,,,,,,,,63.95,64.06,64.31,64.64,64.98,64.7,64.48,64.46,64.7,65.16,65.21,65.48,66.1,66.94,67.88,68.26,68.89,69.7,70.62,71.4,70.57,70.62,70.62,70.65,70.7,71.07,71.56,72.06,72.44,69.67
"Bahamas, The",BHS,#N/A,#N/A,"Employment to population ratio, 15+, total (%) (modeled ILO estimate)",SL.EMP.TOTL.SP.ZS,,,,,,,,,,,,,,,,,,,,,,,,,,,,,,,,63.98,62.75,64.95,64.68,67.02,66.55,67.78,69.3,69.39,69.54,69.89,68.37,67.04,67.47,67.41,69.55,69.39,69.18,64.57,64.5,64.34,64.77,63.22,65.11,66.55,66.05,68.24,68.07,67.97,61.4
Bosnia and Herzegovina,BIH,43.915886,17.679076,"Employment to population ratio, 15+, total (%) (modeled ILO estimate)",SL.EMP.TOTL.SP.ZS,,,,,,,,,,,,,,,,,,,,,,,,,,,,,,,,41.45,41.19,40.47,39.65,38.63,37.76,37.26,36.52,35.48,34.71,33.97,33.15,32.44,31.73,30.83,30.24,31.64,34.72,34.39,33.39,33.09,33.23,33.33,34.07,33.93,34.88,36.99,38.01,40.01,38.47
Belarus,BLR,53.709807,27.953389,"Employment to population ratio, 15+, total (%) (modeled ILO estimate)",SL.EMP.TOTL.SP.ZS,,,,,,,,,,,,,,,,,,,,,,,,,,,,,,,,58.68,57.35,54.28,52.09,49.53,45.29,49.16,50.66,51.25,52,52.72,53.4,54.12,54.89,55.72,56.51,57.33,58.13,58.77,59.17,59.51,59.81,60.06,60.3,60.46,60.62,60.79,61.46,61.04,59.79
Belize,BLZ,17.189877,-88.49765,"Employment to population ratio, 15+, total (%) (modeled ILO estimate)",SL.EMP.TOTL.SP.ZS,,,,,,,,,,,,,,,,,,,,,,,,,,,,,,,,52.96,52.97,52.89,52.06,51.42,50.87,51.93,51.38,52.72,54.44,56.03,55.95,56.27,56.61,56.94,57.84,58.3,58.39,58.1,57.96,57.97,57.99,58.02,58.56,59.16,60.48,60.56,60.81,61.02,56.55
Bermuda,BMU,32.321384,-64.75737,"Employment to population ratio, 15+, total (%) (modeled ILO estimate)",SL.EMP.TOTL.SP.ZS,,,,,,,,,,,,,,,,,,,,,,,,,,,,,,,,,,,,,,,,,,,,,,,,,,,,,,,,,,,,,
Bolivia,BOL,-16.290154,-63.588653,"Employment to population ratio, 15+, total (%) (modeled ILO estimate)",SL.EMP.TOTL.SP.ZS,,,,,,,,,,,,,,,,,,,,,,,,,,,,,,,,67.75,67.66,67.77,67.97,68.2,68.38,68.63,68.72,68.72,68.75,69.15,69.5,69.87,70.25,70.63,71.03,69.98,70.31,70.05,70.18,70.25,67.52,67.64,69.84,64.99,65.32,66.54,69.42,69.61,62.92
Brazil,BRA,-14.235004,-51.92528,"Employment to population ratio, 15+, total (%) (modeled ILO estimate)",SL.EMP.TOTL.SP.ZS,,,,,,,,,,,,,,,,,,,,,,,,,,,,,,,,58.12,58.49,59.14,59.4,59.68,57.88,57.93,57.32,57.34,57.75,58.15,58.94,58.55,59.75,60.02,60.27,60.18,60.82,60.24,59.73,59.19,59.67,59.7,59.64,58.65,56.39,55.84,56.15,56.76,51.14
Barbados,BRB,13.193887,-59.543198,"Employment to population ratio, 15+, total (%) (modeled ILO estimate)",SL.EMP.TOTL.SP.ZS,,,,,,,,,,,,,,,,,,,,,,,,,,,,,,,,51.94,52.58,51.95,53.38,56.22,58.99,58.98,60.31,61.32,61.95,61.62,61.32,60.89,62.41,62.63,62.69,63.37,62.62,61.03,60.16,59.74,58.51,59.17,56.95,57.93,59.63,59.33,59,58.7,53.76
Brunei Darussalam,BRN,#N/A,#N/A,"Employment to population ratio, 15+, total (%) (modeled ILO estimate)",SL.EMP.TOTL.SP.ZS,,,,,,,,,,,,,,,,,,,,,,,,,,,,,,,,62.13,62.3,62.53,62.78,63.06,63.14,63.29,63.55,63.89,64.24,63.94,63.54,63.27,63.12,63.02,62.6,62.23,62.03,62.1,62.1,62.02,61.89,61.71,61.44,60.8,60.11,59.36,60.79,60.24,58.57
Bhutan,BTN,27.514162,90.433601,"Employment to population ratio, 15+, total (%) (modeled ILO estimate)",SL.EMP.TOTL.SP.ZS,,,,,,,,,,,,,,,,,,,,,,,,,,,,,,,,70.83,70.45,70.04,69.63,69.22,69.08,68.98,68.93,68.93,68.81,68.68,68.83,69.03,68.72,68.47,68.37,67.9,67.86,67.62,66.02,64.2,62.47,62.43,60.96,64.32,64.67,65.04,65.4,65.74,62.85
Botswana,BWA,-22.328474,24.684866,"Employment to population ratio, 15+, total (%) (modeled ILO estimate)",SL.EMP.TOTL.SP.ZS,,,,,,,,,,,,,,,,,,,,,,,,,,,,,,,,52.15,50.75,49.21,47.6,47.39,47.22,47.34,47.53,48.39,49.13,47.83,46.57,45.23,46.67,48.06,49.44,50.73,51.92,52.78,49.35,52.78,55.68,58.15,58.23,58.34,58.36,58.42,58.42,58.41,57.1
Central African Republic,CAF,6.611111,20.939444,"Employment to population ratio, 15+, total (%) (modeled ILO estimate)",SL.EMP.TOTL.SP.ZS,,,,,,,,,,,,,,,,,,,,,,,,,,,,,,,,69.72,69.73,69.66,69.59,69.51,69.52,69.46,69.38,69.28,69.28,69.3,69.27,69.31,69.31,69.36,69.54,69.7,69.8,69.61,69.53,69.66,69.69,69.98,69.92,69.77,69.58,69.39,69.16,68.91,67.46
Canada,CAN,56.130366,-106.346771,"Employment to population ratio, 15+, total (%) (modeled ILO estimate)",SL.EMP.TOTL.SP.ZS,,,,,,,,,,,,,,,,,,,,,,,,,,,,,,,,59.42,58.03,57.6,58.05,58.3,58.04,58.55,59.32,60.14,60.81,60.65,61.24,61.98,62.19,62.16,62.37,63.01,63.1,61.2,61.25,61.42,61.42,61.54,61.22,61.08,60.91,61.43,61.45,61.86,57.86
Central Europe and the Baltics,CEB,#N/A,#N/A,"Employment to population ratio, 15+, total (%) (modeled ILO estimate)",SL.EMP.TOTL.SP.ZS,,,,,,,,,,,,,,,,,,,,,,,,,,,,,,,,55.98512189,55.76535049,54.40111091,53.6154634,53.21640427,52.76146362,52.89391739,52.6147003,51.48965964,50.21794603,49.65966627,47.96190836,47.94787101,47.76623612,48.12915847,49.22794754,50.47162136,51.36348219,50.4381892,50.0134974,49.90460133,50.15468599,50.24218664,51.27256451,51.97714694,52.75895224,54.0402202,54.67868706,55.01828777,54.18398643
Switzerland,CHE,46.818188,8.227512,"Employment to population ratio, 15+, total (%) (modeled ILO estimate)",SL.EMP.TOTL.SP.ZS,,,,,,,,,,,,,,,,,,,,,,,,,,,,,,,,67.17,66.34,65.67,64.69,64.84,65.06,64.58,65.48,65.77,65.62,66.1,65.76,65.04,64.38,64.06,64.72,65.25,65.96,65.47,63.73,64.49,64.5,64.36,64.69,64.94,65.2,65.1,65.16,65.08,64.18
Channel Islands,CHI,#N/A,#N/A,"Employment to population ratio, 15+, total (%) (modeled ILO estimate)",SL.EMP.TOTL.SP.ZS,,,,,,,,,,,,,,,,,,,,,,,,,,,,,,,,54.92,55.02,54.98,55.01,55.25,55.43,55.48,55.56,55.75,55.7,56.24,56.84,57.06,56.87,56.57,56.12,55.7,55.93,56.31,56.1,55.49,55.43,55.35,55.26,55.23,55.09,54.92,54.71,54.53,53.08
Chile,CHL,-35.675147,-71.542969,"Employment to population ratio, 15+, total (%) (modeled ILO estimate)",SL.EMP.TOTL.SP.ZS,,,,,,,,,,,,,,,,,,,,,,,,,,,,,,,,51.95,52.91,53.1,52.54,53.59,52.35,52.8,52.85,50.6,50.44,49.84,49.63,50.4,50.88,51.91,52.77,53.71,54.54,53.19,55.33,57.12,57.49,57.88,57.84,58.04,57.84,58,57.97,57.81,50.78
China,CHN,35.86166,104.195397,"Employment to population ratio, 15+, total (%) (modeled ILO estimate)",SL.EMP.TOTL.SP.ZS,,,,,,,,,,,,,,,,,,,,,,,,,,,,,,,,77.16,77.11,76.83,76.6,76.4,76.15,75.86,75.6,75.2,74.82,73.74,72.67,71.56,70.88,70.24,69.77,69.41,68.83,68.37,68.05,67.86,67.58,67.34,67.07,66.76,66.48,66.14,65.76,65.1,63.48
Cote d'Ivoire,CIV,#N/A,#N/A,"Employment to population ratio, 15+, total (%) (modeled ILO estimate)",SL.EMP.TOTL.SP.ZS,,,,,,,,,,,,,,,,,,,,,,,,,,,,,,,,63.11,62.91,63.32,63.72,64.01,63.84,63.72,63.57,62.88,62.22,61.55,60.83,60.13,59.43,58.75,58.12,57.48,56.8,55.9,55.14,54.42,53.7,54.83,54.6,54.33,54.05,52.04,52.01,51.99,50.97
Cameroon,CMR,7.369722,12.354722,"Employment to population ratio, 15+, total (%) (modeled ILO estimate)",SL.EMP.TOTL.SP.ZS,,,,,,,,,,,,,,,,,,,,,,,,,,,,,,,,76.9,76.85,76.76,76.64,76.52,76.41,76.36,76.28,76.15,76.09,76.07,76.59,77.11,77.63,78.15,78.74,79.24,77.29,75.07,72.86,73.06,73.24,73.41,73.58,73.61,73.64,73.66,73.64,73.59,71.97
"Congo, Dem. Rep.",COD,#N/A,#N/A,"Employment to population ratio, 15+, total (%) (modeled ILO estimate)",SL.EMP.TOTL.SP.ZS,,,,,,,,,,,,,,,,,,,,,,,,,,,,,,,,68.76,68.96,69.17,69.24,69.22,69.31,69.41,69.42,69.43,69.51,69.6,69.59,69.58,69.56,69.56,68.48,67.37,66.22,64.9,63.66,62.42,61.15,61.12,61.09,61.06,61.08,61.09,61.04,60.96,58.59
"Congo, Rep.",COG,#N/A,#N/A,"Employment to population ratio, 15+, total (%) (modeled ILO estimate)",SL.EMP.TOTL.SP.ZS,,,,,,,,,,,,,,,,,,,,,,,,,,,,,,,,54.84,54.63,54.41,54.37,54.33,54.28,54.34,54.38,54.46,54.54,54.66,54.69,54.83,55.02,55.22,56.13,57.11,57.91,58.31,59.88,61.48,62.88,62.91,62.9,62.88,62.9,62.91,62.83,62.73,59.54
Colombia,COL,4.570868,-74.297333,"Employment to population ratio, 15+, total (%) (modeled ILO estimate)",SL.EMP.TOTL.SP.ZS,,,,,,,,,,,,,,,,,,,,,,,,,,,,,,,,60,60.68,62.05,62.03,61.95,59.9,59.82,57.84,54.11,53.9,57.7,57.29,58.77,57.86,58.44,57.8,57.14,57.46,59.26,60.73,61.92,63.02,63.16,63.56,64.06,63.46,63.04,62.42,61.05,52.97
Comoros,COM,-11.875001,43.872219,"Employment to population ratio, 15+, total (%) (modeled ILO estimate)",SL.EMP.TOTL.SP.ZS,,,,,,,,,,,,,,,,,,,,,,,,,,,,,,,,40.52,40.42,40.39,40.51,40.46,40.47,40.37,40.31,40.23,40.02,39.96,39.9,39.87,39.88,39.99,40.14,40.32,40.5,40.57,40.72,40.9,41.07,41.23,41.42,41.59,41.71,41.82,41.93,42.03,40.56
Cabo Verde,CPV,#N/A,#N/A,"Employment to population ratio, 15+, total (%) (modeled ILO estimate)",SL.EMP.TOTL.SP.ZS,,,,,,,,,,,,,,,,,,,,,,,,,,,,,,,,55.05,54.94,54.77,54.62,54.45,54.17,53.85,53.48,53.05,52.67,52.38,52.06,51.79,51.6,51.48,51.72,51.98,52.19,52.2,52.34,52.44,52.56,52.67,52.79,52.8,52.79,52.76,52.95,53.1,49.39
Costa Rica,CRI,9.748917,-83.753428,"Employment to population ratio, 15+, total (%) (modeled ILO estimate)",SL.EMP.TOTL.SP.ZS,,,,,,,,,,,,,,,,,,,,,,,,,,,,,,,,55.18,55.19,55.85,56.17,56.41,54,56.33,57.98,57.24,56.48,58.09,57.48,57.38,56.43,58.35,58.55,60.12,59.62,57.24,56.48,54.08,57.62,57.83,57.34,56.38,54.26,55.3,56.19,57.06,50.27
Caribbean small states,CSS,#N/A,#N/A,"Employment to population ratio, 15+, total (%) (modeled ILO estimate)",SL.EMP.TOTL.SP.ZS,,,,,,,,,,,,,,,,,,,,,,,,,,,,,,,,56.07026243,56.1508111,56.19395903,56.81104258,56.83615724,56.77574102,56.41408843,56.40634058,56.15262703,56.14032336,56.1606462,56.07433453,56.76160488,57.19734088,57.45733459,57.81719191,57.87955967,57.56147791,56.60768975,55.96766959,55.60517638,55.24738618,55.38415275,55.88540445,56.08544095,56.55714675,57.34461342,57.6893234,58.35082448,54.4961384
Cuba,CUB,21.521757,-77.781167,"Employment to population ratio, 15+, total (%) (modeled ILO estimate)",SL.EMP.TOTL.SP.ZS,,,,,,,,,,,,,,,,,,,,,,,,,,,,,,,,45.98,46.3,46.56,46.87,47.11,47.69,48.01,48.41,48.39,48.85,49.54,49.95,50.52,50.84,51.46,52.02,53,53.53,54.52,53.62,53.13,52.83,52.75,52.88,52.89,52.93,52.95,52.81,52.62,48.35
Curacao,CUW,#N/A,#N/A,"Employment to population ratio, 15+, total (%) (modeled ILO estimate)",SL.EMP.TOTL.SP.ZS,,,,,,,,,,,,,,,,,,,,,,,,,,,,,,,,,,,,,,,,,,,,,,,,,,,,,,,,,,,,,
Cayman Islands,CYM,19.513469,-80.566956,"Employment to population ratio, 15+, total (%) (modeled ILO estimate)",SL.EMP.TOTL.SP.ZS,,,,,,,,,,,,,,,,,,,,,,,,,,,,,,,,,,,,,,,,,,,,,,,,,,,,,,,,,,,,,
Cyprus,CYP,35.126413,33.429859,"Employment to population ratio, 15+, total (%) (modeled ILO estimate)",SL.EMP.TOTL.SP.ZS,,,,,,,,,,,,,,,,,,,,,,,,,,,,,,,,58.98,58.82,58.7,58.74,58.24,58.16,58,57.37,57.05,57.8,59.64,59.97,60.44,60.68,59.67,60.35,61.08,61.1,60.19,60.05,58.23,55.42,52.74,53.07,53.3,53.97,55.4,57.94,59.27,58.89
Czech Republic,CZE,49.817492,15.472962,"Employment to population ratio, 15+, total (%) (modeled ILO estimate)",SL.EMP.TOTL.SP.ZS,,,,,,,,,,,,,,,,,,,,,,,,,,,,,,,,59.89,59.32,58.71,58.9,58.93,58.68,57.92,56.92,55.45,54.86,54.97,55.44,54.89,54.28,54.78,55.08,55.73,55.92,54.7,54.1,54.32,54.57,55.23,55.81,56.61,57.77,58.71,59.41,59.29,57.92
Germany,DEU,51.165691,10.451526,"Employment to population ratio, 15+, total (%) (modeled ILO estimate)",SL.EMP.TOTL.SP.ZS,,,,,,,,,,,,,,,,,,,,,,,,,,,,,,,,56.46,55.28,53.85,53.42,53.44,52.85,52.41,52.44,53.16,53.46,53.45,52.94,52.24,51.41,51.93,52.81,54.06,54.75,54.76,55.29,56.51,56.72,57.08,57.24,57.3,57.83,58.25,58.77,59.32,57.96
Djibouti,DJI,11.825138,42.590275,"Employment to population ratio, 15+, total (%) (modeled ILO estimate)",SL.EMP.TOTL.SP.ZS,,,,,,,,,,,,,,,,,,,,,,,,,,,,,,,,55.94,55.75,55.5,55.28,55.2,55.11,55.12,55.14,55.04,54.92,54.75,54.41,54.06,53.8,53.65,53.64,53.74,53.84,53.75,53.8,53.77,53.73,53.67,53.64,53.59,53.59,53.62,53.58,53.55,51.92
Dominica,DMA,15.414999,-61.370976,"Employment to population ratio, 15+, total (%) (modeled ILO estimate)",SL.EMP.TOTL.SP.ZS,,,,,,,,,,,,,,,,,,,,,,,,,,,,,,,,,,,,,,,,,,,,,,,,,,,,,,,,,,,,,
Denmark,DNK,56.26392,9.501785,"Employment to population ratio, 15+, total (%) (modeled ILO estimate)",SL.EMP.TOTL.SP.ZS,,,,,,,,,,,,,,,,,,,,,,,,,,,,,,,,61.11,61.02,59.33,59.33,60.78,60.92,62.23,62.16,62.78,62.83,62.68,63.27,61.98,62.58,62.68,63.67,63.35,62.75,60.26,58.58,58.15,57.44,56.83,56.92,57.28,57.72,57.9,58.46,59.09,58.41
Dominican Republic,DOM,18.735693,-70.162651,"Employment to population ratio, 15+, total (%) (modeled ILO estimate)",SL.EMP.TOTL.SP.ZS,,,,,,,,,,,,,,,,,,,,,,,,,,,,,,,,54.98,55.06,55.1,55.15,55.23,55.31,55.42,55.52,55.59,55.7,54.13,54.91,53.79,54.1,53.75,55.44,55.38,55.96,53.47,55.05,56.06,56.43,56.32,56.97,58.88,59.44,60.41,61.86,62.71,56.24
Algeria,DZA,28.033886,1.659626,"Employment to population ratio, 15+, total (%) (modeled ILO estimate)",SL.EMP.TOTL.SP.ZS,,,,,,,,,,,,,,,,,,,,,,,,,,,,,,,,35.35,33.72,33.08,32.54,30.67,32.11,33.24,32.36,31.44,30.61,31.49,31.93,32.71,35.16,36.04,37.2,36.45,37.4,37.82,38.12,38.25,37.97,39.37,37.26,37.24,38.06,37.66,37.61,37.51,35.13
East Asia & Pacific (excluding high income),EAP,#N/A,#N/A,"Employment to population ratio, 15+, total (%) (modeled ILO estimate)",SL.EMP.TOTL.SP.ZS,,,,,,,,,,,,,,,,,,,,,,,,,,,,,,,,74.74093751,74.73963222,74.41459245,74.24290446,74.07769742,73.87660616,73.58691455,73.28090304,72.89343707,72.68521103,71.76696888,70.84597451,69.95756435,69.42999649,68.7951761,68.45866062,68.39600665,68.05172488,67.80303418,67.66419499,67.67702416,67.54171572,67.25250597,67.03505653,66.67876663,66.37227249,66.06275293,65.88988707,65.4651446,63.67956043
Early-demographic dividend,EAR,#N/A,#N/A,"Employment to population ratio, 15+, total (%) (modeled ILO estimate)",SL.EMP.TOTL.SP.ZS,,,,,,,,,,,,,,,,,,,,,,,,,,,,,,,,56.25898329,56.23246879,55.92336085,55.96151441,55.62151853,55.60380556,55.61877516,55.53872252,55.40008733,55.29075368,55.1722874,54.89181206,54.9569837,55.19703224,55.19560734,55.02101969,54.91604788,54.62521656,54.17962023,53.98544925,53.67087606,53.40586223,53.11968907,52.89227749,52.66653119,52.48905825,52.43608474,52.32473009,52.37735395,48.85382092
East Asia & Pacific,EAS,#N/A,#N/A,"Employment to population ratio, 15+, total (%) (modeled ILO estimate)",SL.EMP.TOTL.SP.ZS,,,,,,,,,,,,,,,,,,,,,,,,,,,,,,,,72.9032298,72.91673461,72.60402915,72.47080042,72.3337116,72.17348327,71.94393536,71.51065526,71.12234923,70.9758679,70.14153206,69.30399363,68.50967598,68.08848981,67.56511903,67.30029034,67.28927972,66.96879212,66.63956915,66.51502048,66.54795017,66.43506658,66.21975493,66.07788131,65.79807778,65.57119916,65.35191737,65.27873428,64.94397818,63.27323924
Europe & Central Asia (excluding high income),ECA,#N/A,#N/A,"Employment to population ratio, 15+, total (%) (modeled ILO estimate)",SL.EMP.TOTL.SP.ZS,,,,,,,,,,,,,,,,,,,,,,,,,,,,,,,,59.48109827,59.23995756,57.65828079,56.42772982,55.38793116,54.1632165,52.77454328,51.60692859,52.38807334,52.71045422,52.38920297,52.28796658,51.9194034,51.93360394,52.25875103,52.49418108,53.20564804,53.42771657,52.47757129,53.0199522,53.63957662,53.94790749,54.07906732,53.95624144,54.06438204,54.1491645,54.29729742,54.43376926,53.9883304,52.22239981
Europe & Central Asia,ECS,#N/A,#N/A,"Employment to population ratio, 15+, total (%) (modeled ILO estimate)",SL.EMP.TOTL.SP.ZS,,,,,,,,,,,,,,,,,,,,,,,,,,,,,,,,55.53435746,54.94921531,53.57393265,52.77230884,52.36166135,51.83435282,51.32469506,51.03888976,51.60191787,51.95673541,51.96704318,51.93147535,51.82551832,51.80317424,52.17845866,52.60646552,53.31661965,53.58285863,52.52250806,52.53940427,52.79805779,52.77394427,52.69534208,52.83478802,53.1417055,53.51707907,53.91937915,54.30698271,54.327362,52.9722765
Ecuador,ECU,-1.831239,-78.183406,"Employment to population ratio, 15+, total (%) (modeled ILO estimate)",SL.EMP.TOTL.SP.ZS,,,,,,,,,,,,,,,,,,,,,,,,,,,,,,,,61.3,61.48,61.63,61.94,62.15,62.28,62.5,64.89,64.57,64.28,64.32,63.5,62.65,65.31,65.59,67,65.86,65.47,63.17,62.45,62.12,62.84,62.32,61.84,64.07,65.26,66.42,65.63,65.25,58.7
"Egypt, Arab Rep.",EGY,#N/A,#N/A,"Employment to population ratio, 15+, total (%) (modeled ILO estimate)",SL.EMP.TOTL.SP.ZS,,,,,,,,,,,,,,,,,,,,,,,,,,,,,,,,42.32,42.51,41.6,42.44,41.35,41.83,41.62,41.26,42.67,41.98,41.39,40.61,40.6,41.37,41.4,42.11,43.9,43.91,44.22,44.81,43.02,42.96,43.09,43.09,41.67,41.78,40.95,40.52,40.47,38.51
Euro area,EMU,#N/A,#N/A,"Employment to population ratio, 15+, total (%) (modeled ILO estimate)",SL.EMP.TOTL.SP.ZS,,,,,,,,,,,,,,,,,,,,,,,,,,,,,,,,50.69336377,49.83218027,48.59267729,48.03499724,48.0542535,48.02328759,48.12644833,48.56595148,49.26044896,49.92804993,50.36138718,50.5649444,50.73172954,50.68805557,51.09411837,51.69014238,52.40089691,52.58014897,51.34790319,50.98865573,50.94513167,50.46350127,50.02311117,50.08828642,50.46671377,51.03535576,51.65392723,52.27587403,52.70738468,51.49839162
Eritrea,ERI,15.179384,39.782334,"Employment to population ratio, 15+, total (%) (modeled ILO estimate)",SL.EMP.TOTL.SP.ZS,,,,,,,,,,,,,,,,,,,,,,,,,,,,,,,,75.74,75.69,75.51,75.27,75.12,74.84,74.51,74.15,73.72,73.36,72.57,71.78,71.15,70.64,70.33,70.73,71.18,71.7,71.9,72.28,72.79,73.25,73.69,73.79,74.14,74.08,74.19,74.08,73.94,68.52
Spain,ESP,40.463667,-3.74922,"Employment to population ratio, 15+, total (%) (modeled ILO estimate)",SL.EMP.TOTL.SP.ZS,,,,,,,,,,,,,,,,,,,,,,,,,,,,,,,,42.11,41.04,38.84,38.06,38.66,39.19,40.31,41.63,43.73,45.55,46.75,47.74,48.68,49.56,51.66,52.76,53.32,52.22,48.5,47.52,46.61,44.6,43.59,44.28,45.59,46.86,48,48.95,49.56,47.44
Estonia,EST,58.595272,25.013607,"Employment to population ratio, 15+, total (%) (modeled ILO estimate)",SL.EMP.TOTL.SP.ZS,,,,,,,,,,,,,,,,,,,,,,,,,,,,,,,,61.94,60.42,58.41,57.48,55.8,55.13,55.18,54.68,52.37,51.12,50.47,51.14,52.2,52.88,53.91,56.99,57.89,58,52.63,50.42,53.66,55.13,55.99,56.65,58.35,58.74,60.09,60.41,60.68,58.84
Ethiopia,ETH,9.145,40.489673,"Employment to population ratio, 15+, total (%) (modeled ILO estimate)",SL.EMP.TOTL.SP.ZS,,,,,,,,,,,,,,,,,,,,,,,,,,,,,,,,75.66,75.72,75.62,75.59,75.92,76.21,76.49,76.75,76.98,77.51,78.05,78.55,79.07,79.59,80.09,80.02,79.93,79.79,79.51,79.33,79.18,79.04,78.9,78.63,78.36,78.15,77.97,77.82,77.67,74.3
European Union,EUU,#N/A,#N/A,"Employment to population ratio, 15+, total (%) (modeled ILO estimate)",SL.EMP.TOTL.SP.ZS,,,,,,,,,,,,,,,,,,,,,,,,,,,,,,,,52.15793527,51.4250119,50.18164138,49.59805504,49.57334468,49.41759293,49.50292928,49.78487786,50.09299639,50.34459966,50.54941843,50.26558606,50.34052943,50.25873614,50.63578456,51.33355361,52.15426381,52.49061025,51.37463672,51.02757905,50.95107654,50.61514714,50.29016865,50.56292281,50.994511,51.59083395,52.33635948,52.94233476,53.34806598,52.22950508
Fragile and conflict affected situations,FCS,#N/A,#N/A,"Employment to population ratio, 15+, total (%) (modeled ILO estimate)",SL.EMP.TOTL.SP.ZS,,,,,,,,,,,,,,,,,,,,,,,,,,,,,,,,63.16565477,63.08456684,62.95018511,62.75550667,62.6312817,62.45043633,62.35408456,62.24377837,62.00248059,61.91979164,61.797471,61.52705112,61.39795929,61.34494228,61.37680933,61.26951849,61.08059019,60.81363373,60.46811368,60.09934014,59.91794566,59.18529417,58.58037925,58.24050852,58.08301937,57.48136732,57.27321689,57.48641144,57.43794672,54.96955998
Finland,FIN,61.92411,25.748151,"Employment to population ratio, 15+, total (%) (modeled ILO estimate)",SL.EMP.TOTL.SP.ZS,,,,,,,,,,,,,,,,,,,,,,,,,,,,,,,,59.62,55.06,51.47,50.67,49.66,49.96,51,52.14,53.7,54.23,54.92,54.92,54.64,54.28,55.52,56.32,57.1,57.6,55.45,54.82,55.17,55.08,54.22,53.78,53.33,53.32,53.66,54.94,55.31,54.78
Fiji,FJI,-16.578193,179.414413,"Employment to population ratio, 15+, total (%) (modeled ILO estimate)",SL.EMP.TOTL.SP.ZS,,,,,,,,,,,,,,,,,,,,,,,,,,,,,,,,57.89,57.65,57.54,57.33,57.24,57.01,56.51,56.01,55.52,55.09,54.96,54.87,54.82,54.8,54.76,55.66,56.53,57.34,58,58.79,59.72,58.69,57.66,56.64,56.22,55.64,55.46,55.3,55.19,53.45
France,FRA,46.227638,2.213749,"Employment to population ratio, 15+, total (%) (modeled ILO estimate)",SL.EMP.TOTL.SP.ZS,,,,,,,,,,,,,,,,,,,,,,,,,,,,,,,,50.03,49.53,48.91,48.13,48.58,48.64,48.22,48.54,48.81,49.73,50.34,50.48,51.3,50.84,51.15,51.08,51.65,52.07,51.29,51.13,50.93,50.76,50.43,49.86,49.76,49.84,50.07,50.31,50.33,49.46
Faroe Islands,FRO,61.892635,-6.911806,"Employment to population ratio, 15+, total (%) (modeled ILO estimate)",SL.EMP.TOTL.SP.ZS,,,,,,,,,,,,,,,,,,,,,,,,,,,,,,,,,,,,,,,,,,,,,,,,,,,,,,,,,,,,,
"Micronesia, Fed. Sts.",FSM,#N/A,#N/A,"Employment to population ratio, 15+, total (%) (modeled ILO estimate)",SL.EMP.TOTL.SP.ZS,,,,,,,,,,,,,,,,,,,,,,,,,,,,,,,,,,,,,,,,,,,,,,,,,,,,,,,,,,,,,
Gabon,GAB,-0.803689,11.609444,"Employment to population ratio, 15+, total (%) (modeled ILO estimate)",SL.EMP.TOTL.SP.ZS,,,,,,,,,,,,,,,,,,,,,,,,,,,,,,,,38.45,38.45,38.33,38.3,38.29,38.32,38.34,38.4,38.65,38.83,38.91,39.01,39.14,39.37,39.61,39.62,39.54,39.63,39.44,39.37,39.48,39.7,40,40.47,40.96,41.4,41.85,42.24,42.51,41.39
United Kingdom,GBR,55.378051,-3.435973,"Employment to population ratio, 15+, total (%) (modeled ILO estimate)",SL.EMP.TOTL.SP.ZS,,,,,,,,,,,,,,,,,,,,,,,,,,,,,,,,56.87,55.71,54.86,55.11,55.54,55.88,56.73,57.16,57.55,58.03,58.13,58.17,58.42,58.59,58.82,58.77,58.68,58.72,57.37,57.05,56.83,57.15,57.53,58.5,59.06,59.51,59.81,60.24,60.61,60.05
Georgia,GEO,42.315407,43.356892,"Employment to population ratio, 15+, total (%) (modeled ILO estimate)",SL.EMP.TOTL.SP.ZS,,,,,,,,,,,,,,,,,,,,,,,,,,,,,,,,66.28,65.24,66.1,64.89,64.71,60.5,59.13,56.54,56.52,56.6,58.59,55.88,57.83,56.14,55.26,55.58,55.96,53.19,51.54,52.92,54.1,54.85,54.59,56.58,57.83,57.07,57.44,56.16,56.26,56.17
Ghana,GHA,7.946527,-1.023194,"Employment to population ratio, 15+, total (%) (modeled ILO estimate)",SL.EMP.TOTL.SP.ZS,,,,,,,,,,,,,,,,,,,,,,,,,,,,,,,,71.41,71.4,70.96,70.55,70.11,69.69,69.25,68.76,67.28,66.99,67.3,67.49,67.66,67.83,67.97,68.09,67.76,67.39,66.85,66.4,65.84,65.24,64.61,64.01,63.39,64.31,65.08,65.07,65.02,63.21
Gibraltar,GIB,36.137741,-5.345374,"Employment to population ratio, 15+, total (%) (modeled ILO estimate)",SL.EMP.TOTL.SP.ZS,,,,,,,,,,,,,,,,,,,,,,,,,,,,,,,,,,,,,,,,,,,,,,,,,,,,,,,,,,,,,
Guinea,GIN,9.945587,-9.696645,"Employment to population ratio, 15+, total (%) (modeled ILO estimate)",SL.EMP.TOTL.SP.ZS,,,,,,,,,,,,,,,,,,,,,,,,,,,,,,,,61.43,61.47,61.42,61.38,61.31,61.34,61.33,61.3,61.2,61.11,61.12,61.01,60.94,60.84,60.71,60.74,60.67,60.58,60.38,60.2,60.08,59.94,59.8,59.7,59.58,59.33,59.11,58.98,58.85,56.98
"Gambia, The",GMB,#N/A,#N/A,"Employment to population ratio, 15+, total (%) (modeled ILO estimate)",SL.EMP.TOTL.SP.ZS,,,,,,,,,,,,,,,,,,,,,,,,,,,,,,,,52.52,52.65,52.7,52.78,52.87,52.88,52.88,52.87,52.82,52.8,52.8,52.75,52.73,52.76,52.83,52.95,53.06,53.14,53.04,53.11,53.24,53.38,53.39,53.53,53.59,53.73,53.85,53.93,53.98,51.7
Guinea-Bissau,GNB,11.803749,-15.180413,"Employment to population ratio, 15+, total (%) (modeled ILO estimate)",SL.EMP.TOTL.SP.ZS,,,,,,,,,,,,,,,,,,,,,,,,,,,,,,,,71.12,71.05,70.94,70.81,70.65,70.48,70.3,70.4,70.2,70.02,69.92,69.83,69.74,69.67,69.6,69.62,69.64,69.64,69.5,69.48,69.52,69.63,69.69,69.81,69.86,69.93,69.99,70.05,70.06,67.15
Equatorial Guinea,GNQ,1.650801,10.267895,"Employment to population ratio, 15+, total (%) (modeled ILO estimate)",SL.EMP.TOTL.SP.ZS,,,,,,,,,,,,,,,,,,,,,,,,,,,,,,,,54.98,54.99,54.97,54.95,54.89,54.5,54.16,53.95,53.9,54.08,53.98,54.02,54.29,54.75,55.3,55.37,55.57,55.9,56.15,56.59,56.48,56.44,56.55,56.87,57.24,56.94,56.79,56.83,57.03,55.24
Greece,GRC,39.074208,21.824312,"Employment to population ratio, 15+, total (%) (modeled ILO estimate)",SL.EMP.TOTL.SP.ZS,,,,,,,,,,,,,,,,,,,,,,,,,,,,,,,,46.12,46.67,46.14,46.62,46.96,47.25,47.09,47.25,47.06,47.37,46.9,47.45,48.1,48.36,48.36,48.92,48.96,49.09,48.32,46.61,43.4,39.78,38.01,38.28,39.2,39.95,40.95,42.04,43.19,42.7
Grenada,GRD,12.262776,-61.604171,"Employment to population ratio, 15+, total (%) (modeled ILO estimate)",SL.EMP.TOTL.SP.ZS,,,,,,,,,,,,,,,,,,,,,,,,,,,,,,,,,,,,,,,,,,,,,,,,,,,,,,,,,,,,,
Greenland,GRL,71.706936,-42.604303,"Employment to population ratio, 15+, total (%) (modeled ILO estimate)",SL.EMP.TOTL.SP.ZS,,,,,,,,,,,,,,,,,,,,,,,,,,,,,,,,,,,,,,,,,,,,,,,,,,,,,,,,,,,,,
Guatemala,GTM,15.783471,-90.230759,"Employment to population ratio, 15+, total (%) (modeled ILO estimate)",SL.EMP.TOTL.SP.ZS,,,,,,,,,,,,,,,,,,,,,,,,,,,,,,,,60.23,60.19,60.1,60.07,60.1,60.09,60.15,60.23,60.29,60.36,60.49,60.61,60.73,60.78,60.57,60.4,60.21,59.97,59.59,59.31,59.36,64.23,59.4,60.1,59.89,60.34,60.67,60.92,61.16,54.4
Guam,GUM,13.444304,144.793731,"Employment to population ratio, 15+, total (%) (modeled ILO estimate)",SL.EMP.TOTL.SP.ZS,,,,,,,,,,,,,,,,,,,,,,,,,,,,,,,,69.09,68.76,67.41,65.68,65.23,64.66,63.34,64.39,59.78,58.49,59.66,60.61,61.67,62.38,62.48,62.13,61.27,60.56,60.11,60.55,56.99,57.46,57.68,59.99,60.26,61.08,60.87,60.67,60.43,57.81
Guyana,GUY,4.860416,-58.93018,"Employment to population ratio, 15+, total (%) (modeled ILO estimate)",SL.EMP.TOTL.SP.ZS,,,,,,,,,,,,,,,,,,,,,,,,,,,,,,,,52.81,52.85,52.85,52.37,51.92,51.55,51.24,50.97,50.7,50.49,50.1,49.61,49.77,49.89,49.93,50.08,49.9,49.63,49.13,48.84,48.52,48.25,48,47.81,47.6,47.43,47.3,47.15,47.17,43.22
High income,HIC,#N/A,#N/A,"Employment to population ratio, 15+, total (%) (modeled ILO estimate)",SL.EMP.TOTL.SP.ZS,,,,,,,,,,,,,,,,,,,,,,,,,,,,,,,,56.55074919,56.08692421,55.53673436,55.59070577,55.78646088,55.83887532,56.11057959,56.09564125,56.24162223,56.54795517,56.36546437,56.03196904,55.92710816,56.00625241,56.36165889,56.81500229,57.23555174,57.20260876,55.71459131,55.39398624,55.47088339,55.56844103,55.55974113,55.93653183,56.33051777,56.77312501,57.25269542,57.71836578,58.07620293,56.03570621
"Hong Kong SAR, China",HKG,#N/A,#N/A,"Employment to population ratio, 15+, total (%) (modeled ILO estimate)",SL.EMP.TOTL.SP.ZS,,,,,,,,,,,,,,,,,,,,,,,,,,,,,,,,62.55,61.51,60.93,60.72,59.96,59.85,59.97,58.5,57.45,58.26,58.13,57.11,56.43,57.05,57.53,57.93,58.43,58.24,57.1,56.6,57.58,58.11,58.78,58.67,58.75,58.59,58.67,58.52,58.1,54.9
Honduras,HND,15.199999,-86.241905,"Employment to population ratio, 15+, total (%) (modeled ILO estimate)",SL.EMP.TOTL.SP.ZS,,,,,,,,,,,,,,,,,,,,,,,,,,,,,,,,62.97,64.13,64.24,64.27,64.42,63.78,64.64,64.32,64.51,63.47,62.39,62.1,61.01,60.3,60.72,60.06,59.36,60.13,61.11,61.7,59.4,58.95,61.47,61.88,62.47,61.71,63.29,64.87,65.13,54.34
Heavily indebted poor countries (HIPC),HPC,#N/A,#N/A,"Employment to population ratio, 15+, total (%) (modeled ILO estimate)",SL.EMP.TOTL.SP.ZS,,,,,,,,,,,,,,,,,,,,,,,,,,,,,,,,68.90841642,68.81698987,68.65750161,68.56484894,68.52629438,68.53337666,68.56041843,68.56479451,68.44777104,68.41937124,68.42763599,68.40605373,68.38126124,68.44068966,68.48783602,68.4087657,68.24921041,68.04469479,67.62176504,67.15823483,66.87727363,66.54797667,66.46189186,66.27675181,66.02516898,66.00508239,65.97496337,66.00179406,65.95675226,63.73223926
Croatia,HRV,45.1,15.2,"Employment to population ratio, 15+, total (%) (modeled ILO estimate)",SL.EMP.TOTL.SP.ZS,,,,,,,,,,,,,,,,,,,,,,,,,,,,,,,,51.2,50.94,50.69,50.36,50.01,49.74,49.36,48.11,46.64,45.03,44.86,44.42,45.04,46.18,46.58,46.85,47.84,48.74,48.37,46.56,44.73,43.11,41.93,43.12,44.04,44.48,45.83,47.03,48.07,47.64
Haiti,HTI,18.971187,-72.285215,"Employment to population ratio, 15+, total (%) (modeled ILO estimate)",SL.EMP.TOTL.SP.ZS,,,,,,,,,,,,,,,,,,,,,,,,,,,,,,,,62.48,62.16,61.78,61.39,60.97,60.54,60.07,59.59,59.12,58.08,57.5,56.9,56.32,55.76,55.2,54.64,54.05,54.76,55.1,55.69,56.37,57.02,57.26,57.56,57.83,58.11,58.41,58.7,58.95,55.22
Hungary,HUN,47.162494,19.503304,"Employment to population ratio, 15+, total (%) (modeled ILO estimate)",SL.EMP.TOTL.SP.ZS,,,,,,,,,,,,,,,,,,,,,,,,,,,,,,,,49.08,48.99,45.98,45.01,44.41,43.27,42.98,43.59,45.37,45.77,45.98,46.03,46.74,46.48,46.54,46.77,46.63,46.1,44.97,44.86,45.16,45.91,46.77,49.51,51.09,52.91,53.91,54.46,54.88,54.25
IBRD only,IBD,#N/A,#N/A,"Employment to population ratio, 15+, total (%) (modeled ILO estimate)",SL.EMP.TOTL.SP.ZS,,,,,,,,,,,,,,,,,,,,,,,,,,,,,,,,63.94643848,63.90269685,63.54871051,63.28819547,62.93184896,62.62146743,62.3654536,62.03411112,61.797526,61.65711569,61.22282565,60.75416602,60.39946815,60.37059429,60.23078686,60.02590852,59.94579299,59.66119939,59.14964911,58.86856766,58.65415673,58.44473736,58.18833521,57.89938939,57.57100094,57.2225737,56.96323729,56.76934333,56.53868609,53.61704128
IDA & IBRD total,IBT,#N/A,#N/A,"Employment to population ratio, 15+, total (%) (modeled ILO estimate)",SL.EMP.TOTL.SP.ZS,,,,,,,,,,,,,,,,,,,,,,,,,,,,,,,,63.88409147,63.83219204,63.50090539,63.27649612,62.94641328,62.67713556,62.46561038,62.16936605,61.96013841,61.83449041,61.46372888,61.05027011,60.74997078,60.72429399,60.58893836,60.41233309,60.32892246,60.06763119,59.61079509,59.3774536,59.1829004,58.93123678,58.65196505,58.39847647,58.12370098,57.79176021,57.62732076,57.50683328,57.34354423,54.50946205
IDA total,IDA,#N/A,#N/A,"Employment to population ratio, 15+, total (%) (modeled ILO estimate)",SL.EMP.TOTL.SP.ZS,,,,,,,,,,,,,,,,,,,,,,,,,,,,,,,,63.5749359,63.48576058,63.26813361,63.22008591,63.01586776,62.94077172,62.93555337,62.79740502,62.70767472,62.64234522,62.55101586,62.37591206,62.30707235,62.28209007,62.15049203,62.08012237,61.96335446,61.77968394,61.52813769,61.46482821,61.32315027,60.87472158,60.47933117,60.33841184,60.24129443,59.94143939,60.09854898,60.20876674,60.244709,57.6731466
IDA blend,IDB,#N/A,#N/A,"Employment to population ratio, 15+, total (%) (modeled ILO estimate)",SL.EMP.TOTL.SP.ZS,,,,,,,,,,,,,,,,,,,,,,,,,,,,,,,,58.30826453,58.21889612,57.85289579,57.83911185,57.32184187,57.30075789,57.44371928,57.22855608,57.25210306,57.37760366,57.23710073,57.08247535,57.19797928,57.29763489,57.03164167,57.00386494,57.14605644,57.08708242,57.11445533,57.14325002,57.22431161,56.49852271,55.67832047,55.58952825,55.49096243,54.72211316,54.62512208,54.76044126,55.01745535,52.58703866
Indonesia,IDN,-0.789275,113.921327,"Employment to population ratio, 15+, total (%) (modeled ILO estimate)",SL.EMP.TOTL.SP.ZS,,,,,,,,,,,,,,,,,,,,,,,,,,,,,,,,63.8,64.08,63.3,63.52,63.42,63.3,62.97,62.86,62.59,63.15,62.33,60.88,60.45,60.29,58.83,59.21,60.94,61.84,62.59,63.42,63.81,64.71,64.14,64.11,63.49,63.33,64.21,64.47,65.54,63.72
IDA only,IDX,#N/A,#N/A,"Employment to population ratio, 15+, total (%) (modeled ILO estimate)",SL.EMP.TOTL.SP.ZS,,,,,,,,,,,,,,,,,,,,,,,,,,,,,,,,66.23520711,66.14141258,65.99427808,65.92497465,65.87468047,65.77501637,65.69882783,65.60297744,65.45866577,65.29987504,65.23387173,65.04859898,64.88687862,64.79951389,64.7368286,64.64702965,64.40194565,64.15817585,63.76824326,63.66283451,63.41001268,63.10310137,62.92418579,62.75644088,62.65906419,62.59467841,62.87702015,62.9702551,62.89004405,60.24303339
Isle of Man,IMN,54.236107,-4.548056,"Employment to population ratio, 15+, total (%) (modeled ILO estimate)",SL.EMP.TOTL.SP.ZS,,,,,,,,,,,,,,,,,,,,,,,,,,,,,,,,,,,,,,,,,,,,,,,,,,,,,,,,,,,,,
India,IND,20.593684,78.96288,"Employment to population ratio, 15+, total (%) (modeled ILO estimate)",SL.EMP.TOTL.SP.ZS,,,,,,,,,,,,,,,,,,,,,,,,,,,,,,,,55.15,55.09,55.03,55.03,54.91,54.77,54.63,54.49,54.34,54.23,54.34,54.43,54.55,54.71,54.89,54.17,53.46,52.74,51.88,51.15,50.28,49.44,48.96,48.52,48.08,47.64,47.21,46.79,46.74,43
Not classified,INX,#N/A,#N/A,"Employment to population ratio, 15+, total (%) (modeled ILO estimate)",SL.EMP.TOTL.SP.ZS,,,,,,,,,,,,,,,,,,,,,,,,,,,,,,,,,,,,,,,,,,,,,,,,,,,,,,,,,,,,,
Ireland,IRL,53.41291,-8.24389,"Employment to population ratio, 15+, total (%) (modeled ILO estimate)",SL.EMP.TOTL.SP.ZS,,,,,,,,,,,,,,,,,,,,,,,,,,,,,,,,47.61,46.9,47.11,48.23,49.83,50.69,52.17,55.45,58.06,59.83,60.14,59.95,59.98,60.24,62.28,62.95,63.14,61.37,56.1,53.8,52.76,52.46,53.82,54.81,56,57.17,58.02,58.78,59.36,57.75
"Iran, Islamic Rep.",IRN,#N/A,#N/A,"Employment to population ratio, 15+, total (%) (modeled ILO estimate)",SL.EMP.TOTL.SP.ZS,,,,,,,,,,,,,,,,,,,,,,,,,,,,,,,,40.63,40.37,40.05,39.75,39.44,39.13,39.08,39.05,39.05,39.14,39.33,39.53,40.68,41.89,41.72,41.19,40.55,38.61,38.39,37.1,37.19,36.78,37.37,36.97,37.75,38.48,39.44,39.53,40.13,37.77
Iraq,IRQ,33.223191,43.679291,"Employment to population ratio, 15+, total (%) (modeled ILO estimate)",SL.EMP.TOTL.SP.ZS,,,,,,,,,,,,,,,,,,,,,,,,,,,,,,,,38.31,38.22,38.27,38.43,38.48,38.57,38.61,38.59,38.56,38.56,38.56,38.53,38.52,38.52,38.53,38.55,38.55,38.63,38.56,38.57,38.68,38.8,39.01,39.22,39.26,39.26,37.08,37.39,37.49,35.66
Iceland,ISL,64.963051,-19.020835,"Employment to population ratio, 15+, total (%) (modeled ILO estimate)",SL.EMP.TOTL.SP.ZS,,,,,,,,,,,,,,,,,,,,,,,,,,,,,,,,72.38,71.97,70.52,70.51,72.73,72.79,71.86,73.68,75.55,76.85,76.63,74.71,73.72,73.3,73.84,74.45,74.99,73.83,69.25,69.24,69.09,69.89,71.06,72.53,73.95,75.43,74.54,73.26,71.74,69.43
Israel,ISR,31.046051,34.851612,"Employment to population ratio, 15+, total (%) (modeled ILO estimate)",SL.EMP.TOTL.SP.ZS,,,,,,,,,,,,,,,,,,,,,,,,,,,,,,,,51.22,51.18,53.12,55.5,56.4,55.96,54.75,53.87,53.92,54.41,53.96,52.66,52.57,53.31,54.71,55.49,56.82,57.92,56.77,57.69,58.38,59.2,59.77,60.38,60.76,61.15,61.4,61.52,61.28,59.31
Italy,ITA,41.87194,12.56738,"Employment to population ratio, 15+, total (%) (modeled ILO estimate)",SL.EMP.TOTL.SP.ZS,,,,,,,,,,,,,,,,,,,,,,,,,,,,,,,,45.47,44.22,43.35,42.45,41.81,41.78,41.67,41.78,42.16,42.54,43.3,43.89,44.43,45.63,45.17,45.58,45.66,45.64,44.55,44.01,43.96,43.69,42.66,42.62,42.95,43.52,44.05,44.44,44.77,43.89
Jamaica,JAM,18.109581,-77.297508,"Employment to population ratio, 15+, total (%) (modeled ILO estimate)",SL.EMP.TOTL.SP.ZS,,,,,,,,,,,,,,,,,,,,,,,,,,,,,,,,60.17,60.17,59.76,60.44,59.22,58.73,57.76,57.48,56.86,56.51,56.47,56.49,57.6,57.58,57.43,57.77,57.87,57.23,56.31,55.41,55.02,54.07,54.2,55.15,55.64,57.03,58.81,59.85,61.52,58.8
Jordan,JOR,30.585164,36.238414,"Employment to population ratio, 15+, total (%) (modeled ILO estimate)",SL.EMP.TOTL.SP.ZS,,,,,,,,,,,,,,,,,,,,,,,,,,,,,,,,32.95,32.93,33.32,34.82,36.19,36.61,36.55,36.46,36.34,36.27,35.77,35.18,34.97,34.91,34.83,34.96,36.51,36.42,37.05,36.57,35.83,35.37,34.3,34.59,34.15,33.34,33.19,33.02,32.83,30.88
Japan,JPN,36.204824,138.252924,"Employment to population ratio, 15+, total (%) (modeled ILO estimate)",SL.EMP.TOTL.SP.ZS,,,,,,,,,,,,,,,,,,,,,,,,,,,,,,,,62.58,62.79,62.44,61.97,61.58,61.53,61.71,60.95,60.08,59.65,59.13,58.23,57.93,57.86,57.94,58.05,58.34,58.16,57.29,57.01,56.9,56.73,57.23,57.67,57.95,58.57,59.17,60.4,60.87,60.49
Kazakhstan,KAZ,48.019573,66.923684,"Employment to population ratio, 15+, total (%) (modeled ILO estimate)",SL.EMP.TOTL.SP.ZS,,,,,,,,,,,,,,,,,,,,,,,,,,,,,,,,70.65,70.64,70.84,66.73,64.53,62.93,62.69,62.61,62.2,62.27,63.32,63.68,63.7,63.43,63.87,64.29,64.92,65.68,65.46,66.3,66.59,66.75,66.94,67.29,67.4,66.65,65.85,65.75,65.51,62.06
Kenya,KEN,-0.023559,37.906193,"Employment to population ratio, 15+, total (%) (modeled ILO estimate)",SL.EMP.TOTL.SP.ZS,,,,,,,,,,,,,,,,,,,,,,,,,,,,,,,,71.27,71.08,70.84,70.63,70.44,70.25,70.15,70.04,69.94,68.96,67.92,66.78,65.61,64.44,63.26,64.46,65.65,66.79,67.71,68.62,69.48,70.25,70.95,71.65,72.31,72.96,72.76,72.54,72.31,69.75
Kyrgyz Republic,KGZ,#N/A,#N/A,"Employment to population ratio, 15+, total (%) (modeled ILO estimate)",SL.EMP.TOTL.SP.ZS,,,,,,,,,,,,,,,,,,,,,,,,,,,,,,,,58.38,60.24,60.91,62.87,63.12,61.38,60.36,59.42,59.56,59.72,59.13,56.29,57.65,58.25,59.59,60.25,59.86,59.23,58.48,58.55,59.03,58.53,57.3,57.38,57.67,57.13,56.06,55.05,54.91,50.64
Cambodia,KHM,12.565679,104.990963,"Employment to population ratio, 15+, total (%) (modeled ILO estimate)",SL.EMP.TOTL.SP.ZS,,,,,,,,,,,,,,,,,,,,,,,,,,,,,,,,78.4,78.65,78.96,80.18,79.99,79.72,79.64,79.4,79.18,77.96,82.61,81.87,80.89,79.53,79.92,80.37,80.75,81.5,82.08,84.57,85.37,83.03,80.41,80.1,80.01,81.77,82.14,82.05,81.94,79.11
Kiribati,KIR,-3.370417,-168.734039,"Employment to population ratio, 15+, total (%) (modeled ILO estimate)",SL.EMP.TOTL.SP.ZS,,,,,,,,,,,,,,,,,,,,,,,,,,,,,,,,,,,,,,,,,,,,,,,,,,,,,,,,,,,,,
St. Kitts and Nevis,KNA,#N/A,#N/A,"Employment to population ratio, 15+, total (%) (modeled ILO estimate)",SL.EMP.TOTL.SP.ZS,,,,,,,,,,,,,,,,,,,,,,,,,,,,,,,,,,,,,,,,,,,,,,,,,,,,,,,,,,,,,
"Korea, Rep.",KOR,#N/A,#N/A,"Employment to population ratio, 15+, total (%) (modeled ILO estimate)",SL.EMP.TOTL.SP.ZS,,,,,,,,,,,,,,,,,,,,,,,,,,,,,,,,58.87,58.98,58.72,59.71,60.38,60.76,60.9,56.48,56.8,58.46,58.86,59.84,59.23,59.92,59.84,59.87,59.98,59.46,58.49,58.54,58.91,59.28,59.45,60.19,60.47,60.51,60.83,60.61,60.89,60.06
Kuwait,KWT,29.31166,47.481766,"Employment to population ratio, 15+, total (%) (modeled ILO estimate)",SL.EMP.TOTL.SP.ZS,,,,,,,,,,,,,,,,,,,,,,,,,,,,,,,,63.51,63.82,64.59,65.82,66.76,66.56,66.44,66.41,66.78,66.86,66.63,66.35,65.75,65.58,65.95,65.75,65.62,65.9,67.14,68.05,68.42,68.84,69.4,69.84,70.97,71.19,71.68,71.79,71.83,66.32
Latin America & Caribbean (excluding high income),LAC,#N/A,#N/A,"Employment to population ratio, 15+, total (%) (modeled ILO estimate)",SL.EMP.TOTL.SP.ZS,,,,,,,,,,,,,,,,,,,,,,,,,,,,,,,,57.68783511,58.05507768,58.43032199,58.40606185,57.86560932,57.39047796,58.120789,58.03582745,57.68801105,57.63923393,58.02827096,58.1119321,58.42199125,59.17627732,59.55151239,60.05749895,60.13107722,60.32896459,59.94082682,59.85485432,59.76214478,60.3908992,60.23664953,60.1041307,59.8235342,59.00143434,59.01190991,59.31087299,59.60255028,53.21961596
Lao PDR,LAO,#N/A,#N/A,"Employment to population ratio, 15+, total (%) (modeled ILO estimate)",SL.EMP.TOTL.SP.ZS,,,,,,,,,,,,,,,,,,,,,,,,,,,,,,,,79.3,79.23,79.12,78.98,78.89,78.85,78.8,78.73,78.61,78.5,78.39,78.23,78.07,77.9,77.74,77.71,77.67,77.62,77.52,77.51,77.54,77.6,77.65,77.71,77.75,77.72,77.69,77.66,77.66,76.6
Lebanon,LBN,33.854721,35.862285,"Employment to population ratio, 15+, total (%) (modeled ILO estimate)",SL.EMP.TOTL.SP.ZS,,,,,,,,,,,,,,,,,,,,,,,,,,,,,,,,40.28,40.24,40.47,40.85,41.29,41.18,41.44,41.63,42,42.37,42.78,43.16,43.52,43.66,43.63,43.53,43.39,43.74,43.85,43.57,43.71,43.78,43.76,43.78,43.84,43.92,44.01,44.22,44.63,42.32
Liberia,LBR,6.428055,-9.429499,"Employment to population ratio, 15+, total (%) (modeled ILO estimate)",SL.EMP.TOTL.SP.ZS,,,,,,,,,,,,,,,,,,,,,,,,,,,,,,,,73.97,74.08,74.1,74.06,74.05,73.9,73.34,73.14,72.96,72.69,72.8,72.85,73.22,73.29,73.41,73.58,73.73,73.86,73.85,73.84,73.84,73.79,73.68,73.63,73.53,74.39,74.25,74.08,73.93,70.33
Libya,LBY,26.3351,17.228331,"Employment to population ratio, 15+, total (%) (modeled ILO estimate)",SL.EMP.TOTL.SP.ZS,,,,,,,,,,,,,,,,,,,,,,,,,,,,,,,,34.87,34.9,34.94,35.07,35.26,35.34,35.48,35.67,35.87,36.15,36.4,36.66,36.99,37.4,37.85,38.26,38.66,39,39.07,39.32,39.57,39.77,39.92,40.09,40.17,40.31,40.45,40.55,40.58,38.81
St. Lucia,LCA,#N/A,#N/A,"Employment to population ratio, 15+, total (%) (modeled ILO estimate)",SL.EMP.TOTL.SP.ZS,,,,,,,,,,,,,,,,,,,,,,,,,,,,,,,,52.34,52.45,52.52,52.54,53.39,53.16,50.58,49.91,52.19,53.28,52.23,51.45,50.83,52.17,54.23,56.6,58.43,59.64,58.06,57.02,56.16,56.41,54.62,55.58,56.51,57.42,58.38,59.1,61.16,57.51
Latin America & Caribbean,LCN,#N/A,#N/A,"Employment to population ratio, 15+, total (%) (modeled ILO estimate)",SL.EMP.TOTL.SP.ZS,,,,,,,,,,,,,,,,,,,,,,,,,,,,,,,,57.24303687,57.67344881,58.06343481,57.98778441,57.50732313,57.01145401,57.72407573,57.65763298,57.16677327,57.13323091,57.49717653,57.44806489,57.72283216,58.52681093,59.05725752,59.65158961,59.77927782,60.01168987,59.59586081,59.53876239,59.513259,60.08209793,59.92760204,59.80790692,59.55148544,58.77075864,58.7610547,58.99564063,59.16604399,52.8501513
Least developed countries: UN classification,LDC,#N/A,#N/A,"Employment to population ratio, 15+, total (%) (modeled ILO estimate)",SL.EMP.TOTL.SP.ZS,,,,,,,,,,,,,,,,,,,,,,,,,,,,,,,,67.21313102,67.10109256,66.96372771,66.88851528,66.83837966,66.80180816,66.75650833,66.71012294,66.602974,66.4786438,66.45986953,66.29180611,66.12748372,66.05390121,66.00064209,65.94765507,65.7540128,65.56395225,65.18981067,64.97858612,64.76378149,64.43093994,64.1712431,63.96391768,63.84381139,63.73606182,64.03772157,64.12889914,64.03732938,61.40276862
Low income,LIC,#N/A,#N/A,"Employment to population ratio, 15+, total (%) (modeled ILO estimate)",SL.EMP.TOTL.SP.ZS,,,,,,,,,,,,,,,,,,,,,,,,,,,,,,,,67.7763518,67.66362959,67.4842564,67.32914003,67.268609,67.22620037,67.17546488,67.12366553,67.06918373,67.00941391,66.93081284,66.8392815,66.76195807,66.73883202,66.6806629,66.42811408,66.14931524,65.85081259,65.50958787,65.16439427,64.93017924,64.61429195,64.50157734,64.28301006,64.18863305,64.17545047,64.17302283,64.17362601,64.12448936,61.942363
Liechtenstein,LIE,47.166,9.555373,"Employment to population ratio, 15+, total (%) (modeled ILO estimate)",SL.EMP.TOTL.SP.ZS,,,,,,,,,,,,,,,,,,,,,,,,,,,,,,,,,,,,,,,,,,,,,,,,,,,,,,,,,,,,,
Sri Lanka,LKA,7.873054,80.771797,"Employment to population ratio, 15+, total (%) (modeled ILO estimate)",SL.EMP.TOTL.SP.ZS,,,,,,,,,,,,,,,,,,,,,,,,,,,,,,,,51.18,49.25,49.59,50.17,48.8,49.46,50.03,54.05,52.75,52.52,52.31,51.73,51.96,51.77,52.05,52.62,52.8,53.06,52.52,52.02,52.02,51.37,52.52,51.66,52.3,52.67,52.84,50.65,50.26,48.65
Lower middle income,LMC,#N/A,#N/A,"Employment to population ratio, 15+, total (%) (modeled ILO estimate)",SL.EMP.TOTL.SP.ZS,,,,,,,,,,,,,,,,,,,,,,,,,,,,,,,,57.66991232,57.6128948,57.41476141,57.47258168,57.21203148,57.07006201,56.91801192,56.77179464,56.62393997,56.59321688,56.49675758,56.33671836,56.36500125,56.50073605,56.41956497,56.17655154,56.0477974,55.73470919,55.35886025,55.13100449,54.76516669,54.29664767,53.96574719,53.67918534,53.35493622,53.04014937,52.92008362,52.8231056,52.92498607,49.86719744
Low & middle income,LMY,#N/A,#N/A,"Employment to population ratio, 15+, total (%) (modeled ILO estimate)",SL.EMP.TOTL.SP.ZS,,,,,,,,,,,,,,,,,,,,,,,,,,,,,,,,64.11561814,64.05612936,63.72720945,63.51770648,63.18629144,62.92139138,62.70133826,62.39992376,62.22436902,62.11078712,61.73730451,61.34389986,61.04123141,61.00061742,60.83246737,60.62731893,60.51837984,60.22952616,59.77310574,59.53339593,59.32956303,59.07386668,58.79246047,58.52588655,58.24216676,57.90218746,57.72982919,57.60688497,57.44885677,54.62409758
Lesotho,LSO,-29.609988,28.233608,"Employment to population ratio, 15+, total (%) (modeled ILO estimate)",SL.EMP.TOTL.SP.ZS,,,,,,,,,,,,,,,,,,,,,,,,,,,,,,,,47.2,47.09,46.9,46.79,46.73,46.59,46.44,46.95,47.37,47.64,47.88,48.01,48.21,48.48,48.79,49.21,49.6,49.89,49.76,49.93,50.31,50.65,50.96,51.1,51.16,51.27,51.45,51.6,51.7,50.22
Late-demographic dividend,LTE,#N/A,#N/A,"Employment to population ratio, 15+, total (%) (modeled ILO estimate)",SL.EMP.TOTL.SP.ZS,,,,,,,,,,,,,,,,,,,,,,,,,,,,,,,,71.32289051,71.32865605,71.00008337,70.53548076,70.30166945,69.85495952,69.47107076,69.03321173,68.83031777,68.73118852,68.08646273,67.48636096,66.76877191,66.48177134,66.21850819,66.03147256,65.99479885,65.7726462,65.33001442,65.17726029,65.17205535,65.12382841,64.97618919,64.82818087,64.54168758,64.12484143,63.85908259,63.68886424,63.22263283,61.06026213
Lithuania,LTU,55.169438,23.881275,"Employment to population ratio, 15+, total (%) (modeled ILO estimate)",SL.EMP.TOTL.SP.ZS,,,,,,,,,,,,,,,,,,,,,,,,,,,,,,,,61.26,61.21,53.68,53.89,51.31,51.67,52.65,52.54,52.93,50.55,48.84,50.61,52.41,51.03,51.51,52.04,53.21,52.65,48.85,46.82,48.95,50.38,51.42,52.79,53.86,55.79,56.6,57.96,58.11,56.8
Luxembourg,LUX,49.815273,6.129583,"Employment to population ratio, 15+, total (%) (modeled ILO estimate)",SL.EMP.TOTL.SP.ZS,,,,,,,,,,,,,,,,,,,,,,,,,,,,,,,,51.11,51.63,50.91,50.27,48.82,49.14,49.72,49.78,50.82,52.12,51.87,52.45,51.19,51.33,52.34,52.66,52.78,52.23,54.34,54.5,54.07,55.03,54.88,55.57,55.4,54.51,55.43,55.89,56.57,55.8
Latvia,LVA,56.879635,24.603189,"Employment to population ratio, 15+, total (%) (modeled ILO estimate)",SL.EMP.TOTL.SP.ZS,,,,,,,,,,,,,,,,,,,,,,,,,,,,,,,,58.62,56.85,50.9,49.31,48.89,47.53,51.01,50.32,49.6,48.09,48.55,49.81,50.09,50.55,51.52,54.86,56.56,56.73,49.57,47.49,49.11,50.76,52.31,52.81,54.13,54.77,55.88,57.2,57.54,56.77
"Macao SAR, China",MAC,#N/A,#N/A,"Employment to population ratio, 15+, total (%) (modeled ILO estimate)",SL.EMP.TOTL.SP.ZS,,,,,,,,,,,,,,,,,,,,,,,,,,,,,,,,56.05,57.05,57.22,57,57.82,64.84,64.69,63.12,61.63,60.9,61.72,59.92,58.61,60.14,61.75,63.65,66.53,67.8,67.91,68.8,69.46,69.55,69.78,70.58,70.31,69.44,68.98,69.1,68.62,69.17
St. Martin (French part),MAF,#N/A,#N/A,"Employment to population ratio, 15+, total (%) (modeled ILO estimate)",SL.EMP.TOTL.SP.ZS,,,,,,,,,,,,,,,,,,,,,,,,,,,,,,,,,,,,,,,,,,,,,,,,,,,,,,,,,,,,,
Morocco,MAR,31.791702,-7.09262,"Employment to population ratio, 15+, total (%) (modeled ILO estimate)",SL.EMP.TOTL.SP.ZS,,,,,,,,,,,,,,,,,,,,,,,,,,,,,,,,43.11,43.26,43.31,43.05,43.34,43.07,43.25,43.15,43.22,43.47,43.99,44.19,44.49,45.23,44.96,45.35,45.27,45.02,45.34,45.29,45.38,44.76,44.31,43.36,42.71,42.04,41.31,41.3,41.28,38.3
Monaco,MCO,43.750298,7.412841,"Employment to population ratio, 15+, total (%) (modeled ILO estimate)",SL.EMP.TOTL.SP.ZS,,,,,,,,,,,,,,,,,,,,,,,,,,,,,,,,,,,,,,,,,,,,,,,,,,,,,,,,,,,,,
Moldova,MDA,47.411631,28.369885,"Employment to population ratio, 15+, total (%) (modeled ILO estimate)",SL.EMP.TOTL.SP.ZS,,,,,,,,,,,,,,,,,,,,,,,,,,,,,,,,47.84,47.92,48.78,49.21,50.1,49.29,48.84,48.52,48.26,49.29,48.95,48.1,46.67,45.76,44.88,43.49,43.22,42.35,39.93,38.62,39.5,38.48,39.35,39.71,42.48,41,40.61,37.05,39.39,37.77
Madagascar,MDG,-18.766947,46.869107,"Employment to population ratio, 15+, total (%) (modeled ILO estimate)",SL.EMP.TOTL.SP.ZS,,,,,,,,,,,,,,,,,,,,,,,,,,,,,,,,81.78,81.69,81.55,81.49,81.48,81.51,81.55,81.58,81.56,81.6,82.02,82.22,82.36,83.45,84.36,84.76,85.09,85.32,85.26,85.24,86.94,87.82,87.02,86.09,84.99,84.83,84.71,84.6,84.49,81.85
Maldives,MDV,3.202778,73.22068,"Employment to population ratio, 15+, total (%) (modeled ILO estimate)",SL.EMP.TOTL.SP.ZS,,,,,,,,,,,,,,,,,,,,,,,,,,,,,,,,49.3,49.56,49.85,50.15,50.43,50.97,51.48,51.99,52.55,53.19,52.64,52.18,51.82,51.52,51.26,50.83,50.5,50.22,49.66,52.44,55.46,58.52,61.59,64.65,64.3,63.49,64.41,65.27,65.95,62.87
Middle East & North Africa,MEA,#N/A,#N/A,"Employment to population ratio, 15+, total (%) (modeled ILO estimate)",SL.EMP.TOTL.SP.ZS,,,,,,,,,,,,,,,,,,,,,,,,,,,,,,,,42.35175909,41.98817563,41.72364149,41.85542796,41.60096451,41.64997672,41.60975757,41.33401624,41.5597298,41.37467089,41.24177435,41.07172774,41.45323088,42.22061828,42.36334593,42.66577877,43.01796444,42.82861335,43.05030501,43.15934539,42.90853403,42.91150296,43.26484566,43.01026437,42.98235067,43.20607076,42.94296343,42.85626561,43.01103659,40.86371409
Mexico,MEX,23.634501,-102.552784,"Employment to population ratio, 15+, total (%) (modeled ILO estimate)",SL.EMP.TOTL.SP.ZS,,,,,,,,,,,,,,,,,,,,,,,,,,,,,,,,56.85,57.4,57.98,57.18,55.4,56.39,58.48,58.58,58.53,58.32,57.74,57.08,57.15,57.37,58.42,59.12,59.14,58.68,57.68,57.5,57.61,58.43,58.23,57.72,58.14,58.33,58.41,58.71,59.28,53.79
Marshall Islands,MHL,7.131474,171.184478,"Employment to population ratio, 15+, total (%) (modeled ILO estimate)",SL.EMP.TOTL.SP.ZS,,,,,,,,,,,,,,,,,,,,,,,,,,,,,,,,,,,,,,,,,,,,,,,,,,,,,,,,,,,,,
Middle income,MIC,#N/A,#N/A,"Employment to population ratio, 15+, total (%) (modeled ILO estimate)",SL.EMP.TOTL.SP.ZS,,,,,,,,,,,,,,,,,,,,,,,,,,,,,,,,63.88716779,63.82898693,63.48850799,63.27320174,62.92165253,62.64109005,62.40807615,62.08783779,61.90168673,61.78195354,61.38557172,60.9684347,60.64681458,60.60089257,60.42017172,60.21345025,60.11112424,59.81695445,59.34569155,59.10745641,58.89965908,58.64220918,58.34087264,58.06331902,57.75656232,57.38164818,57.18627899,57.04316585,56.86517472,53.97192045
North Macedonia,MKD,#N/A,#N/A,"Employment to population ratio, 15+, total (%) (modeled ILO estimate)",SL.EMP.TOTL.SP.ZS,,,,,,,,,,,,,,,,,,,,,,,,,,,,,,,,35.26,35.3,35.31,35.17,35.05,34.92,34.6,35.08,35.87,36.05,37.03,36.36,34.06,33.85,33.84,34.53,35.43,36.46,37.57,37.82,38.06,38.03,39.59,40.22,41.05,41.94,42.82,43.75,45.9,41.99
Mali,MLI,17.570692,-3.996166,"Employment to population ratio, 15+, total (%) (modeled ILO estimate)",SL.EMP.TOTL.SP.ZS,,,,,,,,,,,,,,,,,,,,,,,,,,,,,,,,67.31,67.31,67.24,67.19,67.16,67.21,67.26,66.84,66.38,65.98,65.49,65.03,64.51,64.04,63.43,62.92,62.36,63.52,64.28,65.22,66.18,66.51,66.76,66.73,65.57,64.98,64.38,64.37,64.3,63.66
Malta,MLT,35.937496,14.375416,"Employment to population ratio, 15+, total (%) (modeled ILO estimate)",SL.EMP.TOTL.SP.ZS,,,,,,,,,,,,,,,,,,,,,,,,,,,,,,,,47.11,47.05,46.96,46.76,46.59,46.72,46.69,46.71,46.79,46.74,46.75,46.52,45.91,44.62,44.91,45.17,46,46.32,45.97,46.57,47.6,48.82,50.21,51.27,51.62,52.58,53.47,54.9,55.89,55.87
Myanmar,MMR,#N/A,#N/A,"Employment to population ratio, 15+, total (%) (modeled ILO estimate)",SL.EMP.TOTL.SP.ZS,,,,,,,,,,,,,,,,,,,,,,,,,,,,,,,,74.35,74.05,73.84,73.6,73.39,73.18,73.01,72.82,72.43,71.95,71.5,71.02,70.47,69.94,69.4,68.86,68.36,67.9,67.36,66.89,66.59,66.22,65.81,65.42,65.05,63.12,61.22,61.9,60.11,55.6
Middle East & North Africa (excluding high income),MNA,#N/A,#N/A,"Employment to population ratio, 15+, total (%) (modeled ILO estimate)",SL.EMP.TOTL.SP.ZS,,,,,,,,,,,,,,,,,,,,,,,,,,,,,,,,40.8235278,40.600996,40.23355077,40.32241044,39.84294052,39.98643127,40.02611408,39.76087624,40.00325487,39.69302825,39.56638077,39.40783959,39.78982182,40.55661086,40.54829307,40.72839104,40.87498922,40.37338665,40.43208087,40.2568385,39.76964724,39.55501188,39.81888716,39.40284488,39.2027207,39.41562365,39.14076707,39.07819009,39.22675377,37.15753589
Montenegro,MNE,42.708678,19.37439,"Employment to population ratio, 15+, total (%) (modeled ILO estimate)",SL.EMP.TOTL.SP.ZS,,,,,,,,,,,,,,,,,,,,,,,,,,,,,,,,35.58,35.58,35.36,35.18,34.96,34.77,34.66,34.44,34.38,34.21,34.08,33.89,33.79,33.74,33.75,36.57,39.1,40.28,39.25,38.94,38.91,39.78,40.02,42.57,43.59,43.87,44.76,46.17,47.12,44.89
Mongolia,MNG,46.862496,103.846656,"Employment to population ratio, 15+, total (%) (modeled ILO estimate)",SL.EMP.TOTL.SP.ZS,,,,,,,,,,,,,,,,,,,,,,,,,,,,,,,,54.16,54.95,55.42,55.67,55.74,55.93,56.06,56.2,56.31,56.5,56.47,56.28,55.65,55.2,55.01,54.86,54.74,55.74,55.66,55.15,57.18,57.08,57.31,57.37,57.41,55,56.1,57.26,59.62,60.24
Northern Mariana Islands,MNP,17.33083,145.38469,"Employment to population ratio, 15+, total (%) (modeled ILO estimate)",SL.EMP.TOTL.SP.ZS,,,,,,,,,,,,,,,,,,,,,,,,,,,,,,,,,,,,,,,,,,,,,,,,,,,,,,,,,,,,,
Mozambique,MOZ,-18.665695,35.529562,"Employment to population ratio, 15+, total (%) (modeled ILO estimate)",SL.EMP.TOTL.SP.ZS,,,,,,,,,,,,,,,,,,,,,,,,,,,,,,,,82.43,82.16,81.9,81.75,81.67,81.68,81.64,82.22,82.6,82.88,83.04,83.09,83.08,82.73,82.36,81.99,81.58,81.09,80.37,79.74,79.09,78.4,77.65,76.9,76.09,75.98,75.86,75.72,75.58,73.55
Mauritania,MRT,21.00789,-10.940835,"Employment to population ratio, 15+, total (%) (modeled ILO estimate)",SL.EMP.TOTL.SP.ZS,,,,,,,,,,,,,,,,,,,,,,,,,,,,,,,,46.1,46.01,45.82,45.79,45.59,45.48,45.55,45.49,45.39,45.42,44.98,44.5,44.05,43.65,43.27,42.94,42.65,42.34,41.87,41.54,41.24,40.94,40.83,40.77,40.7,40.63,40.58,40.72,40.77,39.81
Mauritius,MUS,-20.348404,57.552152,"Employment to population ratio, 15+, total (%) (modeled ILO estimate)",SL.EMP.TOTL.SP.ZS,,,,,,,,,,,,,,,,,,,,,,,,,,,,,,,,54.38,54.32,54.23,54.2,54.17,53.99,53.83,53.71,53.59,53.54,53.52,53.97,53.78,53.55,53.28,53.33,52.85,53.56,53.45,53.86,53.2,53.36,54.4,54.59,54.93,54.66,54.92,54.5,54.2,52.33
Malawi,MWI,-13.254308,34.301525,"Employment to population ratio, 15+, total (%) (modeled ILO estimate)",SL.EMP.TOTL.SP.ZS,,,,,,,,,,,,,,,,,,,,,,,,,,,,,,,,73.43,73.4,73.2,73.21,73.15,73.14,73.19,73.24,73.22,73.2,73.14,73,72.88,72.81,72.81,72.91,73.03,73.1,72.96,72.95,73,73.03,73.03,72.9,72.76,72.59,72.45,72.31,72.11,70.73
Malaysia,MYS,4.210484,101.975766,"Employment to population ratio, 15+, total (%) (modeled ILO estimate)",SL.EMP.TOTL.SP.ZS,,,,,,,,,,,,,,,,,,,,,,,,,,,,,,,,60.02,59.88,59.51,59.69,59.84,60.09,60.05,59.9,59.71,59.86,59.46,59.32,59.1,59.02,58.98,58.92,58.83,58.21,58.23,58.41,59.7,60.7,62.07,62.44,62.46,62.1,62.2,62.64,62.59,61.27
North America,NAC,#N/A,#N/A,"Employment to population ratio, 15+, total (%) (modeled ILO estimate)",SL.EMP.TOTL.SP.ZS,,,,,,,,,,,,,,,,,,,,,,,,,,,,,,,,60.51667406,60.18747442,60.41393107,61.29541113,61.72516307,61.95932,62.5591822,62.90703989,63.21489823,63.47120309,62.69028348,61.83300068,61.45001086,61.50740529,61.7828211,62.16351273,62.07649007,61.40391309,58.65220929,57.8420858,57.77934403,58.31814738,58.26870116,58.65713086,58.9738288,59.31513654,59.7731027,60.05385886,60.43819792,56.47485544
Namibia,NAM,-22.95764,18.49041,"Employment to population ratio, 15+, total (%) (modeled ILO estimate)",SL.EMP.TOTL.SP.ZS,,,,,,,,,,,,,,,,,,,,,,,,,,,,,,,,45.03,44.96,44.96,44.99,43.49,42,40.56,41.65,42.68,43.75,43.75,43.64,43.55,43.5,43.71,44.08,44.43,44.7,44.64,44.81,46.71,48.51,49.55,49.74,47.98,46.19,46.78,47.28,47.65,46.79
New Caledonia,NCL,-20.904305,165.618042,"Employment to population ratio, 15+, total (%) (modeled ILO estimate)",SL.EMP.TOTL.SP.ZS,,,,,,,,,,,,,,,,,,,,,,,,,,,,,,,,52.7,53.38,54.09,54.55,54.79,54.87,55.16,55.51,55.73,55.81,55.78,55.74,55.61,55.48,55.48,55.56,55.78,56.24,56.88,56.76,56.29,55.84,55.34,54.84,54.48,54.14,53.88,53.65,53.43,52.08
Niger,NER,17.607789,8.081666,"Employment to population ratio, 15+, total (%) (modeled ILO estimate)",SL.EMP.TOTL.SP.ZS,,,,,,,,,,,,,,,,,,,,,,,,,,,,,,,,77.98,77.96,77.91,77.86,77.8,77.86,77.9,77.89,77.94,78.03,78.11,77.88,77.64,77.41,77.11,77.77,78.31,78.67,78.93,79.14,79.35,75.82,74.25,72.19,72.11,72.05,71.99,71.9,71.81,71.33
Nigeria,NGA,9.081999,8.675277,"Employment to population ratio, 15+, total (%) (modeled ILO estimate)",SL.EMP.TOTL.SP.ZS,,,,,,,,,,,,,,,,,,,,,,,,,,,,,,,,58.85,58.63,58.51,58.4,58.28,58.15,58.03,57.93,57.87,57.78,57.76,57.57,57.54,57.5,57.53,57.64,57.73,57.78,57.69,57.65,57.69,55.37,53.06,52.06,51.59,49.44,49.6,50.39,51.1,48.61
Nicaragua,NIC,12.865416,-85.207229,"Employment to population ratio, 15+, total (%) (modeled ILO estimate)",SL.EMP.TOTL.SP.ZS,,,,,,,,,,,,,,,,,,,,,,,,,,,,,,,,55.81,55.43,54.99,54.66,54.36,54.87,55.38,55.88,56.33,57.06,57.21,57.33,57.48,58.37,59.16,59.36,60.05,59.63,58.78,59.38,60.67,61.88,62.23,63.1,63.17,63.87,64.41,63.18,63.23,61.07
Netherlands,NLD,52.132633,5.291266,"Employment to population ratio, 15+, total (%) (modeled ILO estimate)",SL.EMP.TOTL.SP.ZS,,,,,,,,,,,,,,,,,,,,,,,,,,,,,,,,52.78,54.06,53.85,53.97,54.25,55.19,56.93,58.32,59.54,61.13,62.12,62.45,61.78,61.29,59.23,59.95,61.49,62.56,62.24,61.22,60.94,60.83,59.83,59.27,59.67,59.89,60.51,61.39,62.08,61.24
Norway,NOR,60.472024,8.468946,"Employment to population ratio, 15+, total (%) (modeled ILO estimate)",SL.EMP.TOTL.SP.ZS,,,,,,,,,,,,,,,,,,,,,,,,,,,,,,,,58.52,58.13,57.89,58.73,59.14,61.15,62.8,64.39,64.48,64.61,64.39,64.4,63.03,62.93,62.56,63.45,64.74,65.7,64.38,63.38,63.11,63.26,62.77,62.46,62.1,61.36,60.95,61.5,61.71,60.79
Nepal,NPL,28.394857,84.124008,"Employment to population ratio, 15+, total (%) (modeled ILO estimate)",SL.EMP.TOTL.SP.ZS,,,,,,,,,,,,,,,,,,,,,,,,,,,,,,,,84.55,84.54,84.54,84.58,84.64,84.59,84.55,84.51,84.46,84.25,84.07,83.86,83.64,83.43,83.19,82.99,82.78,82.51,82.07,81.66,81.22,80.77,80.32,79.91,79.49,79.6,79.76,79.94,80.11,73.8
Nauru,NRU,-0.522778,166.931503,"Employment to population ratio, 15+, total (%) (modeled ILO estimate)",SL.EMP.TOTL.SP.ZS,,,,,,,,,,,,,,,,,,,,,,,,,,,,,,,,,,,,,,,,,,,,,,,,,,,,,,,,,,,,,
New Zealand,NZL,-40.900557,174.885971,"Employment to population ratio, 15+, total (%) (modeled ILO estimate)",SL.EMP.TOTL.SP.ZS,,,,,,,,,,,,,,,,,,,,,,,,,,,,,,,,56.67,56.25,56.73,58.36,60.09,60.95,60.42,59.48,60.02,60.73,61.81,62.58,62.67,63.71,64.62,65.11,65.49,65.03,63.35,62.8,63.14,62.66,63.67,64.73,64.68,65.81,66.8,67,66.77,66.37
OECD members,OED,#N/A,#N/A,"Employment to population ratio, 15+, total (%) (modeled ILO estimate)",SL.EMP.TOTL.SP.ZS,,,,,,,,,,,,,,,,,,,,,,,,,,,,,,,,56.50291669,56.09004853,55.50156884,55.60048324,55.66001559,55.73349486,56.07358731,56.0451354,56.06427468,56.21130109,56.09179501,55.69467845,55.57663169,55.53959435,55.93242141,56.33572319,56.64698039,56.55909444,55.1558881,54.92745313,55.08415316,55.25281252,55.23635471,55.50882229,55.9001042,56.30100197,56.77129733,57.21259556,57.4284167,54.86667025
Oman,OMN,21.512583,55.923255,"Employment to population ratio, 15+, total (%) (modeled ILO estimate)",SL.EMP.TOTL.SP.ZS,,,,,,,,,,,,,,,,,,,,,,,,,,,,,,,,55.53,56.54,57.51,58.25,58.64,57.32,55.88,54.7,53.92,53.2,52.93,53.07,53.41,53.51,53.71,54.05,54.84,56.09,57.88,59.74,61.27,63.04,64.85,66.55,68.09,68.65,68.82,67.75,68.16,64.3
Other small states,OSS,#N/A,#N/A,"Employment to population ratio, 15+, total (%) (modeled ILO estimate)",SL.EMP.TOTL.SP.ZS,,,,,,,,,,,,,,,,,,,,,,,,,,,,,,,,54.69110831,54.31826747,53.86266199,53.58257483,53.22430622,52.89151045,52.62255337,52.64957943,52.67207958,52.7536184,52.7046371,52.72124307,52.82481014,53.15533962,53.62234369,54.50721303,55.2961673,56.0395024,56.03363468,56.17200644,56.80391801,57.36152179,57.88874211,58.32133863,58.6713508,58.69025611,59.03827771,59.4086681,59.63919055,57.74489903
Pakistan,PAK,30.375321,69.345116,"Employment to population ratio, 15+, total (%) (modeled ILO estimate)",SL.EMP.TOTL.SP.ZS,,,,,,,,,,,,,,,,,,,,,,,,,,,,,,,,50.3,50.24,49.69,50.02,48.91,49.48,50.1,50.07,50.34,50.75,50.56,50.47,50.93,51.4,50.99,50.56,50.61,50.55,50.92,51.21,51.12,50.99,50.67,51.12,51.14,50.83,50.56,50.3,50.42,47.91
Panama,PAN,8.537981,-80.782127,"Employment to population ratio, 15+, total (%) (modeled ILO estimate)",SL.EMP.TOTL.SP.ZS,,,,,,,,,,,,,,,,,,,,,,,,,,,,,,,,56.76,57.7,58.6,58.93,59.97,60.01,60.05,60.17,60.24,60.55,60.86,61.12,61.39,61.85,62.15,61.37,61.95,63.48,62.34,61.16,60.86,62.65,63.59,62.9,62.94,63.21,62.39,64.03,64.11,56.21
Peru,PER,-9.189967,-75.015152,"Employment to population ratio, 15+, total (%) (modeled ILO estimate)",SL.EMP.TOTL.SP.ZS,,,,,,,,,,,,,,,,,,,,,,,,,,,,,,,,55.03,56.16,57.23,58.3,60.07,61.74,63.39,64.11,65.09,63.51,66.51,68.27,69.66,71.26,69.13,72.37,74.85,74.98,75.46,76.47,76.01,76.1,75.31,74.77,73.61,72.89,74.5,75.1,75.5,61.1
Philippines,PHL,12.879721,121.774017,"Employment to population ratio, 15+, total (%) (modeled ILO estimate)",SL.EMP.TOTL.SP.ZS,,,,,,,,,,,,,,,,,,,,,,,,,,,,,,,,60.26,60.45,60.47,60.35,60.35,60.2,60.14,60.34,60.25,60.19,60.08,59.93,59.45,59.52,59.54,59.47,59.8,59.58,59.86,59.95,60.64,60.24,59.98,60.55,60.3,60.56,58.15,58.18,58.69,55.11
Palau,PLW,7.51498,134.58252,"Employment to population ratio, 15+, total (%) (modeled ILO estimate)",SL.EMP.TOTL.SP.ZS,,,,,,,,,,,,,,,,,,,,,,,,,,,,,,,,,,,,,,,,,,,,,,,,,,,,,,,,,,,,,
Papua New Guinea,PNG,-6.314993,143.95555,"Employment to population ratio, 15+, total (%) (modeled ILO estimate)",SL.EMP.TOTL.SP.ZS,,,,,,,,,,,,,,,,,,,,,,,,,,,,,,,,70.47,69.65,68.51,68.24,68.71,68.35,68.87,69.39,69.46,69.88,68.01,66.02,63.96,61.82,59.61,57.31,54.93,52.46,49.87,47.3,47.08,46.96,46.88,46.37,46.03,45.93,45.88,46.05,45.9,45.42
Poland,POL,51.919438,19.145136,"Employment to population ratio, 15+, total (%) (modeled ILO estimate)",SL.EMP.TOTL.SP.ZS,,,,,,,,,,,,,,,,,,,,,,,,,,,,,,,,53.09,52.88,51.92,50.84,50.54,50.55,50.65,50.82,48.84,47.09,46.21,44.52,44.33,44.14,45.31,46.7,48.84,50.71,50.74,50.53,50.66,50.68,50.6,51.68,52.37,53.3,54.27,54.82,55.03,54.58
Pre-demographic dividend,PRE,#N/A,#N/A,"Employment to population ratio, 15+, total (%) (modeled ILO estimate)",SL.EMP.TOTL.SP.ZS,,,,,,,,,,,,,,,,,,,,,,,,,,,,,,,,64.67101498,64.55311192,64.45181326,64.392979,64.32479107,64.2722129,64.21973678,64.16913911,64.06620987,63.92721705,63.81071804,63.62627962,63.48607627,63.40588796,63.32353665,63.38039937,63.40213741,63.32934679,63.04940466,62.57721332,62.47985149,61.79081741,61.25020067,60.92094478,60.75940655,60.3168269,60.17260538,60.34183222,60.46974873,58.53632108
Puerto Rico,PRI,18.220833,-66.590149,"Employment to population ratio, 15+, total (%) (modeled ILO estimate)",SL.EMP.TOTL.SP.ZS,,,,,,,,,,,,,,,,,,,,,,,,,,,,,,,,38.09,37.69,38.96,39.63,39.53,40.49,41.23,41.39,42.04,41.67,41.32,41.34,41.47,42.04,41.91,42.31,41.73,40.62,38.46,37.43,37.01,36.93,36.37,35.85,35.9,35.87,36.1,36.48,36.5,33.7
"Korea, Dem. People's Rep.",PRK,#N/A,#N/A,"Employment to population ratio, 15+, total (%) (modeled ILO estimate)",SL.EMP.TOTL.SP.ZS,,,,,,,,,,,,,,,,,,,,,,,,,,,,,,,,79.25,79.66,79.94,80.14,80.3,80.38,80.44,80.33,80.06,79.94,79.75,79.57,79.43,79.31,79.17,79.15,79.12,78.99,78.78,78.69,78.61,78.52,78.45,78.44,78.47,78.43,78.53,78.64,78.57,77.01
Portugal,PRT,39.399872,-8.224454,"Employment to population ratio, 15+, total (%) (modeled ILO estimate)",SL.EMP.TOTL.SP.ZS,,,,,,,,,,,,,,,,,,,,,,,,,,,,,,,,58.85,56.79,55.78,54.97,54.33,54.45,55.45,57.73,57.85,58.47,59.08,59.19,58.17,57.68,57.29,57.44,57.33,57.37,55.49,54.48,52.72,50.7,49.62,50.6,51.32,52.04,53.79,55.05,55.44,53.76
Paraguay,PRY,-23.442503,-58.443832,"Employment to population ratio, 15+, total (%) (modeled ILO estimate)",SL.EMP.TOTL.SP.ZS,,,,,,,,,,,,,,,,,,,,,,,,,,,,,,,,62.82,62.74,62.79,62.94,62.99,63.02,63.07,63.1,63.08,63.14,63.17,63.14,63.9,67.26,67.46,64.97,66.47,66.72,67.23,65.87,66.06,69.44,68.21,66.1,66.47,66.68,67.31,68.02,67.87,64.9
West Bank and Gaza,PSE,#N/A,#N/A,"Employment to population ratio, 15+, total (%) (modeled ILO estimate)",SL.EMP.TOTL.SP.ZS,,,,,,,,,,,,,,,,,,,,,,,,,,,,,,,,36.74,36.62,36.6,36.67,36.62,36.76,36.49,36.16,36,36.46,29.11,26.33,30.1,29.56,31.08,31.38,32.57,30.16,31.13,31.04,33.64,33.27,33.1,33.15,33.62,33.17,32.69,32.1,33.14,31.07
Pacific island small states,PSS,#N/A,#N/A,"Employment to population ratio, 15+, total (%) (modeled ILO estimate)",SL.EMP.TOTL.SP.ZS,,,,,,,,,,,,,,,,,,,,,,,,,,,,,,,,61.87111451,61.86445796,61.95304892,61.92414559,61.84321991,61.77348901,61.6153421,61.41918658,61.26671876,61.26141764,61.35542016,61.45820358,61.46523944,61.56413125,61.60988373,62.11475537,62.53553313,62.92102554,63.30413913,64.01556888,64.51959297,64.07152712,63.76454988,63.43830473,63.38849345,63.17438201,63.16958986,63.18125691,63.21631644,62.1012868
Post-demographic dividend,PST,#N/A,#N/A,"Employment to population ratio, 15+, total (%) (modeled ILO estimate)",SL.EMP.TOTL.SP.ZS,,,,,,,,,,,,,,,,,,,,,,,,,,,,,,,,56.64226236,56.17295901,55.63171816,55.75462068,55.8271756,55.78670394,56.02968699,55.92600077,56.12561487,56.53943868,56.41570988,56.19085588,56.10491817,56.17286606,56.48302166,56.87449022,57.21511324,57.096308,55.5475432,55.12930277,55.1288546,55.16784707,55.15623543,55.40216792,55.76598328,56.18439448,56.68399122,57.18594211,57.57071542,55.53968965
French Polynesia,PYF,-17.679742,-149.406843,"Employment to population ratio, 15+, total (%) (modeled ILO estimate)",SL.EMP.TOTL.SP.ZS,,,,,,,,,,,,,,,,,,,,,,,,,,,,,,,,52.43,52.67,52.94,53.06,53.13,53.22,53.07,52.81,52.48,52.06,51.63,51.22,50.84,50.48,50.18,49.93,49.76,49.83,50.03,50.02,49.99,49.91,49.69,49.36,48.99,48.59,48.17,47.74,47.34,45.71
Qatar,QAT,25.354826,51.183884,"Employment to population ratio, 15+, total (%) (modeled ILO estimate)",SL.EMP.TOTL.SP.ZS,,,,,,,,,,,,,,,,,,,,,,,,,,,,,,,,80.26,79.82,79.94,79.98,79.97,79.43,78.07,77.35,77,76.6,76.53,76.63,77.32,78.02,79.63,80.06,81.96,83.8,85.48,87,86.33,86.14,86.44,87.02,87.75,87.17,86.71,86.61,86.71,83.31
Romania,ROU,45.943161,24.96676,"Employment to population ratio, 15+, total (%) (modeled ILO estimate)",SL.EMP.TOTL.SP.ZS,,,,,,,,,,,,,,,,,,,,,,,,,,,,,,,,63.65,64.05,63.6,63.19,62.87,61.47,62.41,61.45,60.97,59.87,58.83,52.66,51.66,50.82,49.63,50.47,50.72,50.78,50.04,51.12,50.24,50.9,50.61,51.05,50.74,50.55,52.29,52.75,52.97,52.38
Russian Federation,RUS,#N/A,#N/A,"Employment to population ratio, 15+, total (%) (modeled ILO estimate)",SL.EMP.TOTL.SP.ZS,,,,,,,,,,,,,,,,,,,,,,,,,,,,,,,,62.76,62.47,60.26,56.99,55.62,54.51,51.95,50.31,53.18,54.7,54.52,55.69,55.18,55.81,56.56,56.85,58.28,58.57,57.29,57.84,58.59,59.29,59.17,59.39,59.14,59.28,59.08,59.23,58.66,57.62
Rwanda,RWA,-1.940278,29.873888,"Employment to population ratio, 15+, total (%) (modeled ILO estimate)",SL.EMP.TOTL.SP.ZS,,,,,,,,,,,,,,,,,,,,,,,,,,,,,,,,90.49,89.76,88.74,87.8,86.47,86.4,86.11,85.78,85.4,85.04,84.81,84.58,84.39,84.24,84.11,84.02,83.96,83.9,83.71,83.58,83.47,83.33,83.16,83,82.96,82.89,82.88,82.83,82.73,79.24
South Asia,SAS,#N/A,#N/A,"Employment to population ratio, 15+, total (%) (modeled ILO estimate)",SL.EMP.TOTL.SP.ZS,,,,,,,,,,,,,,,,,,,,,,,,,,,,,,,,55.11893635,55.02464338,54.92517165,54.95848936,54.7407001,54.68158072,54.62172055,54.55780908,54.42744246,54.35735041,54.39371863,54.41364492,54.52303968,54.67771139,54.77167358,54.20257933,53.63077317,53.03677366,52.34584197,51.87003662,51.15847325,50.45637242,50.03608302,49.72401976,49.38979127,49.03057723,48.88219762,48.53775981,48.53290996,44.9378845
Saudi Arabia,SAU,23.885942,45.079162,"Employment to population ratio, 15+, total (%) (modeled ILO estimate)",SL.EMP.TOTL.SP.ZS,,,,,,,,,,,,,,,,,,,,,,,,,,,,,,,,49.3,49.37,49.26,48.92,48.45,47.63,47.01,46.62,46.57,47.57,47.16,46.79,46.96,47.2,47.44,47.39,47.65,47.86,47.58,48.42,49.39,50.78,51.62,52.03,52.91,53.14,52.65,52.15,52.45,50.61
Sudan,SDN,12.862807,30.217636,"Employment to population ratio, 15+, total (%) (modeled ILO estimate)",SL.EMP.TOTL.SP.ZS,,,,,,,,,,,,,,,,,,,,,,,,,,,,,,,,42.59,42.78,42.94,43.18,43.46,43.71,43.59,43.46,43.31,43.22,43.15,43.03,42.94,42.88,42.81,42.77,42.69,42.54,43.22,41.92,40.61,40.44,40.34,40.31,40.26,40.23,40.24,40.32,40.4,38.61
Senegal,SEN,14.497401,-14.452362,"Employment to population ratio, 15+, total (%) (modeled ILO estimate)",SL.EMP.TOTL.SP.ZS,,,,,,,,,,,,,,,,,,,,,,,,,,,,,,,,50.57,50.43,50.25,50.09,49.8,49.65,49.43,49.12,48.79,48.56,48.42,48.33,47.63,46.95,46.26,45.7,45.27,44.78,44.07,43.5,42.99,42.93,42.83,42.73,42.58,42.62,42.65,42.68,42.7,41.12
Singapore,SGP,1.352083,103.819836,"Employment to population ratio, 15+, total (%) (modeled ILO estimate)",SL.EMP.TOTL.SP.ZS,,,,,,,,,,,,,,,,,,,,,,,,,,,,,,,,61.78,61.59,62.01,62.47,62.76,63.02,64.07,63.44,62.66,63.57,63.64,61.63,61.44,61.44,61.97,63.4,64.53,65.53,64.26,65.99,66.43,67.21,67.15,67.98,68.68,68.19,68,68.06,68.33,66.03
Solomon Islands,SLB,-9.64571,160.156194,"Employment to population ratio, 15+, total (%) (modeled ILO estimate)",SL.EMP.TOTL.SP.ZS,,,,,,,,,,,,,,,,,,,,,,,,,,,,,,,,81.47,81.03,80.94,80.69,80.52,80.66,80.95,81.11,81.34,82.2,82.72,82.98,82.92,82.93,82.92,82.88,82.81,82.71,82.85,83.05,82.98,83.16,83.36,83.37,83.37,83.36,83.34,83.32,83.34,83.17
Sierra Leone,SLE,8.460555,-11.779889,"Employment to population ratio, 15+, total (%) (modeled ILO estimate)",SL.EMP.TOTL.SP.ZS,,,,,,,,,,,,,,,,,,,,,,,,,,,,,,,,61.94,62.26,62.16,62.11,62.19,62.13,62.15,62.02,61.98,61.89,62.03,61.69,61.59,63.06,62.25,61.47,60.7,59.91,58.98,58.16,57.37,56.58,55.79,55.05,55.49,55.44,55.43,55.43,55.37,54.48
El Salvador,SLV,13.794185,-88.89653,"Employment to population ratio, 15+, total (%) (modeled ILO estimate)",SL.EMP.TOTL.SP.ZS,,,,,,,,,,,,,,,,,,,,,,,,,,,,,,,,56.32,56.25,55.81,57.95,57.29,55.96,55.58,57.81,57.83,57.16,56.66,56.88,57.92,56.81,56.51,57.33,57.89,58.11,57.09,57,57.2,58.11,58.56,57.09,56.49,56.89,56.6,56.57,56.78,48.77
San Marino,SMR,43.94236,12.457777,"Employment to population ratio, 15+, total (%) (modeled ILO estimate)",SL.EMP.TOTL.SP.ZS,,,,,,,,,,,,,,,,,,,,,,,,,,,,,,,,,,,,,,,,,,,,,,,,,,,,,,,,,,,,,
Somalia,SOM,5.152149,46.199616,"Employment to population ratio, 15+, total (%) (modeled ILO estimate)",SL.EMP.TOTL.SP.ZS,,,,,,,,,,,,,,,,,,,,,,,,,,,,,,,,43.96,43.91,43.81,43.86,43.78,43.6,43.45,43.26,43.06,42.92,42.71,42.5,42.37,42.28,42.22,42.11,41.98,41.82,41.47,41.31,41.16,41.07,41.01,41.03,41.07,41.16,41.31,41.47,41.63,41.28
Serbia,SRB,44.016521,21.005859,"Employment to population ratio, 15+, total (%) (modeled ILO estimate)",SL.EMP.TOTL.SP.ZS,,,,,,,,,,,,,,,,,,,,,,,,,,,,,,,,52,52.26,52.01,51.69,51.14,50.71,49.8,49.56,50.11,50.22,49.56,48.52,47.37,45.03,43.42,43.12,44.59,46.26,43.65,41.07,39.14,38.93,40.53,42.3,42.87,45.61,47.13,48.06,49.5,49.25
Sub-Saharan Africa (excluding high income),SSA,#N/A,#N/A,"Employment to population ratio, 15+, total (%) (modeled ILO estimate)",SL.EMP.TOTL.SP.ZS,,,,,,,,,,,,,,,,,,,,,,,,,,,,,,,,65.68360925,65.58708798,65.46266706,65.38241236,65.32197104,65.27081751,65.22069794,65.18286113,65.06145617,65.02139646,64.98085706,64.80097648,64.81602056,64.96672144,64.98492067,65.0844738,65.18486165,65.30453369,64.91665678,64.39092661,64.34396821,63.83216308,63.45296577,63.18216097,63.09963145,62.71750525,62.7258204,62.85697329,62.9088651,60.7280523
South Sudan,SSD,#N/A,#N/A,"Employment to population ratio, 15+, total (%) (modeled ILO estimate)",SL.EMP.TOTL.SP.ZS,,,,,,,,,,,,,,,,,,,,,,,,,,,,,,,,64.98,64.89,64.71,64.65,64.75,64.8,64.86,64.92,64.91,64.91,64.93,64.8,64.66,64.56,64.52,64.59,64.65,64.64,64.26,64.06,63.99,63.89,63.76,63.69,63.6,63.57,63.59,63.61,63.59,60.93
Sub-Saharan Africa,SSF,#N/A,#N/A,"Employment to population ratio, 15+, total (%) (modeled ILO estimate)",SL.EMP.TOTL.SP.ZS,,,,,,,,,,,,,,,,,,,,,,,,,,,,,,,,65.68360925,65.58708798,65.46266706,65.38241236,65.32197104,65.27081751,65.22069794,65.18286113,65.06145617,65.02139646,64.98085706,64.80097648,64.81602056,64.96672144,64.98492067,65.0844738,65.18486165,65.30453369,64.91665678,64.39092661,64.34396821,63.83216308,63.45296577,63.18216097,63.09963145,62.71750525,62.7258204,62.85697329,62.9088651,60.7280523
Small states,SST,#N/A,#N/A,"Employment to population ratio, 15+, total (%) (modeled ILO estimate)",SL.EMP.TOTL.SP.ZS,,,,,,,,,,,,,,,,,,,,,,,,,,,,,,,,55.4289797,55.18556981,54.88030282,54.82823822,54.57411632,54.31704639,54.02675684,54.02642992,53.96592942,54.01179935,53.98041099,53.97138634,54.19315868,54.52353602,54.90846835,55.64162849,56.23892839,56.72632467,56.53575126,56.5393929,56.9596429,57.2803346,57.68754751,58.09655053,58.39885217,58.49766885,58.91583426,59.26643553,59.57156592,57.35255718
Sao Tome and Principe,STP,#N/A,#N/A,"Employment to population ratio, 15+, total (%) (modeled ILO estimate)",SL.EMP.TOTL.SP.ZS,,,,,,,,,,,,,,,,,,,,,,,,,,,,,,,,48.64,48.33,47.93,47.59,47.3,47.16,47.07,47.05,47.09,47.24,46.63,45.71,46.55,46.89,46.92,47.26,48.2,49.01,49.52,50.11,50.57,50.96,50.97,50.95,50.86,50.76,50.62,50.45,50.23,47.69
Suriname,SUR,3.919305,-56.027783,"Employment to population ratio, 15+, total (%) (modeled ILO estimate)",SL.EMP.TOTL.SP.ZS,,,,,,,,,,,,,,,,,,,,,,,,,,,,,,,,40.63,40.77,41.73,43.36,45.62,44.46,44.72,44.78,43.39,44,44.51,44.96,45.46,46.01,46.22,46.5,46.76,46.98,47.01,47.94,47.85,47.64,48.49,48.34,48.18,48.11,48.13,48.14,48.08,44.13
Slovak Republic,SVK,#N/A,#N/A,"Employment to population ratio, 15+, total (%) (modeled ILO estimate)",SL.EMP.TOTL.SP.ZS,,,,,,,,,,,,,,,,,,,,,,,,,,,,,,,,58.03,56.41,54.65,51.8,52.07,53.37,52.55,52.05,49.89,48.36,48.74,48.62,49.92,49.01,49.88,51.2,52.21,53.56,51.66,50.33,50.73,50.87,50.78,51.47,52.77,54.25,55.1,55.89,56.24,55.05
Slovenia,SVN,46.151241,14.995463,"Employment to population ratio, 15+, total (%) (modeled ILO estimate)",SL.EMP.TOTL.SP.ZS,,,,,,,,,,,,,,,,,,,,,,,,,,,,,,,,54.56,53.91,53.24,53.16,53.6,53.63,54.46,54.92,53.84,53.41,54.26,54.56,52.81,55.43,55.36,55.76,56.89,56.89,55.95,54.96,53.33,52.63,51.66,52.15,52.27,52.19,54.68,55.87,55.41,54.41
Sweden,SWE,60.128161,18.643501,"Employment to population ratio, 15+, total (%) (modeled ILO estimate)",SL.EMP.TOTL.SP.ZS,,,,,,,,,,,,,,,,,,,,,,,,,,,,,,,,64.81,61.72,57.87,57.14,58.03,57.49,56.57,57.19,58.2,58.96,59.64,59.39,59.06,58.17,58.16,58.82,59.71,59.82,58,57.7,58.45,58.4,58.74,58.89,59.24,59.59,60,60.29,60.03,58.79
Eswatini,SWZ,#N/A,#N/A,"Employment to population ratio, 15+, total (%) (modeled ILO estimate)",SL.EMP.TOTL.SP.ZS,,,,,,,,,,,,,,,,,,,,,,,,,,,,,,,,41.38,41.36,41.27,41.19,41.03,40.6,40.11,39.49,38.84,38.33,38.06,37.73,37.45,37.17,36.82,36.65,36.46,36.88,36.92,37.18,37.59,37.97,38.36,38.87,39.32,39.92,40.25,40.55,40.78,38.96
Sint Maarten (Dutch part),SXM,#N/A,#N/A,"Employment to population ratio, 15+, total (%) (modeled ILO estimate)",SL.EMP.TOTL.SP.ZS,,,,,,,,,,,,,,,,,,,,,,,,,,,,,,,,,,,,,,,,,,,,,,,,,,,,,,,,,,,,,
Seychelles,SYC,-4.679574,55.491977,"Employment to population ratio, 15+, total (%) (modeled ILO estimate)",SL.EMP.TOTL.SP.ZS,,,,,,,,,,,,,,,,,,,,,,,,,,,,,,,,,,,,,,,,,,,,,,,,,,,,,,,,,,,,,
Syrian Arab Republic,SYR,#N/A,#N/A,"Employment to population ratio, 15+, total (%) (modeled ILO estimate)",SL.EMP.TOTL.SP.ZS,,,,,,,,,,,,,,,,,,,,,,,,,,,,,,,,49.57,49.1,48.93,48.8,48.96,48.05,47.18,46.36,46.41,45.48,44.16,44.16,44,43.23,42.49,41.88,40.95,39.76,39.48,39.41,39.51,39.62,39.77,39.98,40.19,40.31,40.5,40.65,40.77,38.79
Turks and Caicos Islands,TCA,21.694025,-71.797928,"Employment to population ratio, 15+, total (%) (modeled ILO estimate)",SL.EMP.TOTL.SP.ZS,,,,,,,,,,,,,,,,,,,,,,,,,,,,,,,,,,,,,,,,,,,,,,,,,,,,,,,,,,,,,
Chad,TCD,15.454166,18.732207,"Employment to population ratio, 15+, total (%) (modeled ILO estimate)",SL.EMP.TOTL.SP.ZS,,,,,,,,,,,,,,,,,,,,,,,,,,,,,,,,71.7,71.66,71.81,71.72,71.69,71.72,71.7,71.65,71.64,71.64,71.59,71.52,71.4,71.13,70.95,70.98,70.94,70.85,70.62,70.37,70.3,70.12,69.94,69.77,69.62,69.58,69.52,69.4,69.24,66.54
East Asia & Pacific (IDA & IBRD countries),TEA,#N/A,#N/A,"Employment to population ratio, 15+, total (%) (modeled ILO estimate)",SL.EMP.TOTL.SP.ZS,,,,,,,,,,,,,,,,,,,,,,,,,,,,,,,,74.67971673,74.67300691,74.34030617,74.16413352,73.99485601,73.79090548,73.49703913,73.1886372,72.79995191,72.5912013,71.66392747,70.7341999,69.83729859,69.30550194,68.66505751,68.32518548,68.2623385,67.91532853,67.66604662,67.52655511,67.54035722,67.40443265,67.11251498,66.89249829,66.53135762,66.22168155,65.90718249,65.73082792,65.30169778,63.51344167
Europe & Central Asia (IDA & IBRD countries),TEC,#N/A,#N/A,"Employment to population ratio, 15+, total (%) (modeled ILO estimate)",SL.EMP.TOTL.SP.ZS,,,,,,,,,,,,,,,,,,,,,,,,,,,,,,,,58.79600849,58.56001681,57.05112937,55.84385752,54.87935281,53.78006245,52.53976403,51.49458723,51.99458289,52.10866055,51.7394611,51.48776425,51.14745297,51.15610041,51.56043719,51.90287889,52.74912959,53.13008578,52.27630504,52.72721318,53.27856842,53.54216792,53.64202336,53.64218451,53.81246958,53.97768042,54.21246048,54.39686704,54.02396788,52.38669852
Togo,TGO,8.619543,0.824782,"Employment to population ratio, 15+, total (%) (modeled ILO estimate)",SL.EMP.TOTL.SP.ZS,,,,,,,,,,,,,,,,,,,,,,,,,,,,,,,,56.21,56.16,56.23,55.85,55.59,55.32,55.01,55,54.94,55.02,55.15,55.2,55.24,55.45,55.77,56.05,56.7,57.2,57.51,57.84,58.16,58.16,58.12,58.06,57.97,57.44,56.88,56.8,56.69,54.99
Thailand,THA,15.870032,100.992541,"Employment to population ratio, 15+, total (%) (modeled ILO estimate)",SL.EMP.TOTL.SP.ZS,,,,,,,,,,,,,,,,,,,,,,,,,,,,,,,,73.05,73.67,73.22,72.99,73.44,73.88,74.21,71.4,70.52,71.43,70.65,71.11,71.23,71.33,71.55,71.23,71.84,71.92,72.19,71.26,72.75,72.35,70.55,69.28,68.63,67.6,66.73,67.07,66.26,65.39
Tajikistan,TJK,38.861034,71.276093,"Employment to population ratio, 15+, total (%) (modeled ILO estimate)",SL.EMP.TOTL.SP.ZS,,,,,,,,,,,,,,,,,,,,,,,,,,,,,,,,43.98,43.95,42.17,41.05,40.41,39.03,38.82,37.66,38.17,38.38,38.56,38.68,38.84,39.4,39.1,38.87,38.56,38.2,38.17,38.36,38.54,38.67,38.76,38.87,38.94,38.96,38.29,37.66,37.04,36.01
Turkmenistan,TKM,38.969719,59.556278,"Employment to population ratio, 15+, total (%) (modeled ILO estimate)",SL.EMP.TOTL.SP.ZS,,,,,,,,,,,,,,,,,,,,,,,,,,,,,,,,57.7,58.96,59.13,58.74,57.26,55.82,56.38,55.41,54.31,54.76,55.19,55.77,56.17,56.48,56.31,56.32,56.31,56.11,56.27,56.42,56.08,55.99,55.99,55.99,56.04,56.01,55.94,55.83,55.7,54.08
Latin America & the Caribbean (IDA & IBRD countries),TLA,#N/A,#N/A,"Employment to population ratio, 15+, total (%) (modeled ILO estimate)",SL.EMP.TOTL.SP.ZS,,,,,,,,,,,,,,,,,,,,,,,,,,,,,,,,57.75691796,58.1920461,58.56986696,58.46807633,57.95280281,57.406504,58.1240257,58.03496556,57.51487235,57.46608256,57.82337344,57.75892961,58.02514692,58.83887428,59.368435,59.95944494,60.06676679,60.29774139,59.86077464,59.82559046,59.80781905,60.39569685,60.23732958,60.10879982,59.83721671,59.0274547,59.00856503,59.24278266,59.41925483,53.04002046
Timor-Leste,TLS,-8.874217,125.727539,"Employment to population ratio, 15+, total (%) (modeled ILO estimate)",SL.EMP.TOTL.SP.ZS,,,,,,,,,,,,,,,,,,,,,,,,,,,,,,,,67.91,67.95,68.02,68.07,68.03,67.74,67.52,67.41,68.95,68.09,67.41,67.69,67.77,67.72,67.52,67.64,67.08,66.41,65.69,65.11,64.69,64.3,64.14,63.92,63.76,63.59,63.99,64.26,64.34,63.86
Middle East & North Africa (IDA & IBRD countries),TMN,#N/A,#N/A,"Employment to population ratio, 15+, total (%) (modeled ILO estimate)",SL.EMP.TOTL.SP.ZS,,,,,,,,,,,,,,,,,,,,,,,,,,,,,,,,40.85668316,40.63370685,40.26376136,40.35314906,39.87041535,40.01426228,40.05706738,39.79231322,40.0381587,39.72122901,39.65783402,39.5225715,39.87521624,40.65418887,40.63307473,40.81314437,40.95131008,40.46880179,40.52040819,40.34577127,39.82962135,39.61738941,39.88651497,39.46662623,39.26036755,39.48087956,39.20876599,39.15276549,39.29264611,37.22423858
Tonga,TON,-21.178986,-175.198242,"Employment to population ratio, 15+, total (%) (modeled ILO estimate)",SL.EMP.TOTL.SP.ZS,,,,,,,,,,,,,,,,,,,,,,,,,,,,,,,,56.23,57.42,58.5,59.33,58.47,57.69,56.86,55.99,55.12,54.3,53.82,53.33,52.84,53.52,53.88,54.01,53.43,52.76,51.99,51.26,50.71,50.13,49.46,48.71,47.84,47.04,46.25,45.45,45.45,43.56
South Asia (IDA & IBRD),TSA,#N/A,#N/A,"Employment to population ratio, 15+, total (%) (modeled ILO estimate)",SL.EMP.TOTL.SP.ZS,,,,,,,,,,,,,,,,,,,,,,,,,,,,,,,,55.11893635,55.02464338,54.92517165,54.95848936,54.7407001,54.68158072,54.62172055,54.55780908,54.42744246,54.35735041,54.39371863,54.41364492,54.52303968,54.67771139,54.77167358,54.20257933,53.63077317,53.03677366,52.34584197,51.87003662,51.15847325,50.45637242,50.03608302,49.72401976,49.38979127,49.03057723,48.88219762,48.53775981,48.53290996,44.9378845
Sub-Saharan Africa (IDA & IBRD countries),TSS,#N/A,#N/A,"Employment to population ratio, 15+, total (%) (modeled ILO estimate)",SL.EMP.TOTL.SP.ZS,,,,,,,,,,,,,,,,,,,,,,,,,,,,,,,,65.68360925,65.58708798,65.46266706,65.38241236,65.32197104,65.27081751,65.22069794,65.18286113,65.06145617,65.02139646,64.98085706,64.80097648,64.81602056,64.96672144,64.98492067,65.0844738,65.18486165,65.30453369,64.91665678,64.39092661,64.34396821,63.83216308,63.45296577,63.18216097,63.09963145,62.71750525,62.7258204,62.85697329,62.9088651,60.7280523
Trinidad and Tobago,TTO,10.691803,-61.222503,"Employment to population ratio, 15+, total (%) (modeled ILO estimate)",SL.EMP.TOTL.SP.ZS,,,,,,,,,,,,,,,,,,,,,,,,,,,,,,,,55.69,56.07,56.4,57.46,58.2,59,59.13,59.23,59.12,59.02,59,59.08,60.16,61.2,62.17,62.02,61.69,61.57,60.95,59.95,59.46,59.99,60.69,61.09,60.4,59.31,58.89,58.47,58.06,53.09
Tunisia,TUN,33.886917,9.537499,"Employment to population ratio, 15+, total (%) (modeled ILO estimate)",SL.EMP.TOTL.SP.ZS,,,,,,,,,,,,,,,,,,,,,,,,,,,,,,,,41.15,40.93,40.9,40.86,40.83,40.76,40.71,40.53,40.31,40.06,39.95,39.53,39.2,39,39.31,39.88,40.06,40.22,40.19,40.61,38.37,39.25,39.67,40.03,39.95,39.67,39.6,39.4,39.41,38.25
Turkey,TUR,38.963745,35.243322,"Employment to population ratio, 15+, total (%) (modeled ILO estimate)",SL.EMP.TOTL.SP.ZS,,,,,,,,,,,,,,,,,,,,,,,,,,,,,,,,51.81,50.72,46.94,49.4,49.39,49.48,48.16,48.27,47.74,45.63,44.53,43.27,42,40.98,41.13,41.13,41.08,41.34,40.78,42.61,44.49,44.75,45.3,45.16,45.75,46.12,46.85,47.16,45.54,43.37
Tuvalu,TUV,-7.109535,177.64933,"Employment to population ratio, 15+, total (%) (modeled ILO estimate)",SL.EMP.TOTL.SP.ZS,,,,,,,,,,,,,,,,,,,,,,,,,,,,,,,,,,,,,,,,,,,,,,,,,,,,,,,,,,,,,
Tanzania,TZA,-6.369028,34.888822,"Employment to population ratio, 15+, total (%) (modeled ILO estimate)",SL.EMP.TOTL.SP.ZS,,,,,,,,,,,,,,,,,,,,,,,,,,,,,,,,84.47,84.47,84.43,84.43,84.42,84.46,84.49,84.49,84.46,84.49,84.53,84.75,84.97,85.2,85.43,85.68,85.6,85.42,85.02,84.07,83.06,82.66,82.19,82.09,82.08,82.02,81.97,81.89,81.78,81.37
Uganda,UGA,1.373333,32.290275,"Employment to population ratio, 15+, total (%) (modeled ILO estimate)",SL.EMP.TOTL.SP.ZS,,,,,,,,,,,,,,,,,,,,,,,,,,,,,,,,69.35,69.39,69.27,69.15,69.03,68.89,68.75,68.59,68.41,68.26,68.12,67.93,67.93,68.64,69.25,69.12,68.96,68.76,68.35,68.42,68.52,68.63,69.71,69.61,69.49,69.36,69.22,69.05,68.84,65.25
Ukraine,UKR,48.379433,31.16558,"Employment to population ratio, 15+, total (%) (modeled ILO estimate)",SL.EMP.TOTL.SP.ZS,,,,,,,,,,,,,,,,,,,,,,,,,,,,,,,,56.96,56.83,56.91,57.83,56.28,54.51,52.99,50.78,49.56,50.31,49.78,50.1,50.49,50.51,51.16,51.24,51.42,51.4,50.1,50.57,50.95,50.86,51.67,49.4,49.76,49.46,49.33,49.57,49.72,47.52
Upper middle income,UMC,#N/A,#N/A,"Employment to population ratio, 15+, total (%) (modeled ILO estimate)",SL.EMP.TOTL.SP.ZS,,,,,,,,,,,,,,,,,,,,,,,,,,,,,,,,69.51078948,69.49411153,69.06117106,68.63631813,68.25265991,67.8717266,67.61186642,67.18415277,67.0133977,66.84709213,66.19637741,65.55098522,64.89982997,64.69314003,64.44021652,64.30134879,64.26447585,64.0330652,63.50670694,63.30141299,63.30536901,63.31992991,63.09843231,62.87893019,62.64063587,62.24699124,62.0132789,61.86645911,61.41689481,58.76607686
Uruguay,URY,-32.522779,-55.765835,"Employment to population ratio, 15+, total (%) (modeled ILO estimate)",SL.EMP.TOTL.SP.ZS,,,,,,,,,,,,,,,,,,,,,,,,,,,,,,,,54.84,55.67,55.03,55.92,56.5,56.47,56.46,56.45,55.38,54.38,54.14,52.18,51.88,54.11,54.97,56.76,58.83,60.23,60.68,60.79,61.71,61.17,60.7,61.11,60.1,59.61,59.15,58.57,57.93,53.23
United States,USA,37.09024,-95.712891,"Employment to population ratio, 15+, total (%) (modeled ILO estimate)",SL.EMP.TOTL.SP.ZS,,,,,,,,,,,,,,,,,,,,,,,,,,,,,,,,60.64,60.43,60.73,61.66,62.11,62.4,63.01,63.31,63.56,63.77,62.92,61.9,61.39,61.43,61.74,62.14,61.97,61.21,58.36,57.45,57.36,57.96,57.89,58.36,58.73,59.13,59.58,59.89,60.27,56.31
Uzbekistan,UZB,41.377491,64.585262,"Employment to population ratio, 15+, total (%) (modeled ILO estimate)",SL.EMP.TOTL.SP.ZS,,,,,,,,,,,,,,,,,,,,,,,,,,,,,,,,61.77,62.14,61.24,60.21,60.13,58.32,58.09,56.46,56.36,57.09,57.74,58.29,58.84,59.19,59.57,59.92,60.11,59.87,59.6,59.29,59.48,59.46,59.36,59.16,58.97,58.87,58.47,58.39,58.25,55.75
St. Vincent and the Grenadines,VCT,#N/A,#N/A,"Employment to population ratio, 15+, total (%) (modeled ILO estimate)",SL.EMP.TOTL.SP.ZS,,,,,,,,,,,,,,,,,,,,,,,,,,,,,,,,50.22,50.42,50.52,50.65,50.88,51.09,51.32,51.52,51.62,51.77,52.02,52.43,52.89,53.37,53.87,54.3,54.62,54.78,54.35,54.13,54.19,54.25,54.27,54.31,54.27,54.37,54.53,54.7,54.81,50.92
"Venezuela, RB",VEN,#N/A,#N/A,"Employment to population ratio, 15+, total (%) (modeled ILO estimate)",SL.EMP.TOTL.SP.ZS,,,,,,,,,,,,,,,,,,,,,,,,,,,,,,,,56.52,57.91,58.69,57.45,56.6,55.69,56.35,56.42,54.08,54.6,55.34,53.01,52.3,54.08,57.31,59.28,59.72,60.25,60.09,59.25,59.2,58.93,58.4,58.34,58.19,57.57,56.92,55.93,53.8,48.61
British Virgin Islands,VGB,18.420695,-64.639968,"Employment to population ratio, 15+, total (%) (modeled ILO estimate)",SL.EMP.TOTL.SP.ZS,,,,,,,,,,,,,,,,,,,,,,,,,,,,,,,,,,,,,,,,,,,,,,,,,,,,,,,,,,,,,
Virgin Islands (U.S.),VIR,#N/A,#N/A,"Employment to population ratio, 15+, total (%) (modeled ILO estimate)",SL.EMP.TOTL.SP.ZS,,,,,,,,,,,,,,,,,,,,,,,,,,,,,,,,61.58,61.65,61.63,61.56,61.52,61.31,61.2,61.1,60.95,60.7,60.62,60.58,60.51,60.43,60.32,60.12,59.88,59.64,59.49,59.22,58.65,58.05,57.54,57.05,56.59,56.24,55.93,55.65,55.39,50.79
Vietnam,VNM,14.058324,108.277199,"Employment to population ratio, 15+, total (%) (modeled ILO estimate)",SL.EMP.TOTL.SP.ZS,,,,,,,,,,,,,,,,,,,,,,,,,,,,,,,,76.03,75.94,75.84,75.73,75.6,75.46,74.62,75.02,74.96,74.93,74.49,74.92,74.75,74.73,74.63,74.58,74.51,74.63,74.66,75.44,75.76,75.96,76.71,76.93,76.51,76.08,76.17,76.79,75.79,73.91
Vanuatu,VUT,-15.376706,166.959158,"Employment to population ratio, 15+, total (%) (modeled ILO estimate)",SL.EMP.TOTL.SP.ZS,,,,,,,,,,,,,,,,,,,,,,,,,,,,,,,,66.58,66.54,66.57,66.25,66.33,66.25,66.04,65.86,65.88,65.71,66.06,66.48,66.47,66.51,66.49,66.32,66.35,66.35,66.32,68.43,68.42,68.38,68.4,68.48,68.7,68.73,68.71,68.74,68.73,67.17
World,WLD,#N/A,#N/A,"Employment to population ratio, 15+, total (%) (modeled ILO estimate)",SL.EMP.TOTL.SP.ZS,,,,,,,,,,,,,,,,,,,,,,,,,,,,,,,,62.41418328,62.28801281,61.93180001,61.79252155,61.58552563,61.4017016,61.30107693,61.07200118,60.96612865,60.95247737,60.63071036,60.25170643,59.99684011,59.99560745,59.94988253,59.88625666,59.88529672,59.65156086,59.00354649,58.75092677,58.60634901,58.42104058,58.19325387,58.04948994,57.89309715,57.69618651,57.64086559,57.62057985,57.54683235,54.85084262
Samoa,WSM,-13.759029,-172.104629,"Employment to population ratio, 15+, total (%) (modeled ILO estimate)",SL.EMP.TOTL.SP.ZS,,,,,,,,,,,,,,,,,,,,,,,,,,,,,,,,44.35,44.6,44.51,44.66,44.22,44.04,44.16,44.12,43.98,43.57,43.18,43.01,42.8,42.54,42.25,42.13,41.76,41.62,41.67,41.55,41.42,40.42,40.57,40.73,40.65,40.27,40.25,40.35,40.13,39.2
Kosovo,XKX,42.602636,20.902977,"Employment to population ratio, 15+, total (%) (modeled ILO estimate)",SL.EMP.TOTL.SP.ZS,,,,,,,,,,,,,,,,,,,,,,,,,,,,,,,,,,,,,,,,,,,,,,,,,,,,,,,,,,,,,
"Yemen, Rep.",YEM,#N/A,#N/A,"Employment to population ratio, 15+, total (%) (modeled ILO estimate)",SL.EMP.TOTL.SP.ZS,,,,,,,,,,,,,,,,,,,,,,,,,,,,,,,,40.52,40.79,41.1,41.29,41.51,41.55,41.56,41.53,41.5,40.65,39.84,39.04,38.3,37.63,37.01,36.46,35.94,35.42,34.78,34.31,33.58,32.93,32.36,31.87,32.31,32.62,32.92,33.17,33.39,33.02
South Africa,ZAF,-30.559482,22.937506,"Employment to population ratio, 15+, total (%) (modeled ILO estimate)",SL.EMP.TOTL.SP.ZS,,,,,,,,,,,,,,,,,,,,,,,,,,,,,,,,39.85,39.76,39.58,39.44,39.34,39.2,39.09,39.01,38.87,38.82,38.3,36.8,37.31,38.88,39.1,39.56,40.65,43.1,41.25,39.53,39.59,39.93,40.53,40.6,41.45,40.79,40.99,40.93,40.12,36.69
Zambia,ZMB,-13.133897,27.849332,"Employment to population ratio, 15+, total (%) (modeled ILO estimate)",SL.EMP.TOTL.SP.ZS,,,,,,,,,,,,,,,,,,,,,,,,,,,,,,,,64.8,64.47,64.01,65.16,66.26,67.32,68.61,69.84,69.39,69,68.65,68.2,67.76,67.36,66.96,68.9,70.5,71.74,69.19,66.55,68.19,69.5,68.88,68.25,67.57,66.87,66.16,65.7,65.62,65.17
Zimbabwe,ZWE,-19.015438,29.154857,"Employment to population ratio, 15+, total (%) (modeled ILO estimate)",SL.EMP.TOTL.SP.ZS,,,,,,,,,,,,,,,,,,,,,,,,,,,,,,,,78.46,78.37,78.11,77.82,77.1,76.34,75.62,74.94,74.02,74.98,76.02,76.93,77.81,78.68,78.52,78.52,78.53,78.49,78.24,78.11,78.09,78.19,78.35,78.51,78.63,78.77,78.84,78.85,78.91,76.28
